,Name,City,Country,Arena,Capactity,Logo URL,Division,City,State,,,,,,,,,,,,,,,,,,,,
Team,老鹰,亚特兰大,USA,飞利浦球馆,50000,http://gmgames.org/dm16logos/Team0.png,东南,亚特兰大,乔治亚州,,,,,,,,,,,,,,,,,,,,
Team,凯尔特人,波士顿,USA,TD北岸花园,50000,http://gmgames.org/dm16logos/Team1.png,大西洋,波士顿,麻萨诸塞州,,,,,,,,,,,,,,,,,,,,
Team,篮网,布鲁克林,USA,巴克莱中心,50000,http://gmgames.org/dm16logos/Team2.png,大西洋,布鲁克林,纽约,,,,,,,,,,,,,,,,,,,,
Team,黄蜂,夏洛特,USA,光谱中心,50000,http://gmgames.org/dm16logos/Team3.png,东南,夏洛特,北卡罗莱纳,,,,,,,,,,,,,,,,,,,,
Team,公牛,芝加哥,USA,联合中心,50000,http://gmgames.org/dm16logos/Team4.png,中央,芝加哥,伊利诺斯州,,,,,,,,,,,,,,,,,,,,
Team,骑士,克利夫兰,USA,速贷球馆,50000,http://gmgames.org/dm16logos/Team5.png,中央,克利夫兰,俄亥俄州,,,,,,,,,,,,,,,,,,,,
Team,独行侠,达拉斯,USA,美国航空中心,50000,http://gmgames.org/dm16logos/Team6.png,西南,达拉斯,德州,,,,,,,,,,,,,,,,,,,,
Team,掘金,丹佛,USA,百事中心球馆,50000,http://gmgames.org/dm16logos/Team7.png,西北,丹佛,科罗拉多州,,,,,,,,,,,,,,,,,,,,
Team,活塞,底特律,USA,小凯撒球馆,50000,http://gmgames.org/dm16logos/Team8.png,中央,底特律,密歇根,,,,,,,,,,,,,,,,,,,,
Team,勇士,金州,USA,甲骨文球馆,50000,http://gmgames.org/dm16logos/Team9.png,太平洋,金州,加州,,,,,,,,,,,,,,,,,,,,
Team,火箭,休斯顿,USA,丰田中心,50000,http://gmgames.org/dm16logos/Team10.png,西南,休斯顿,德州,,,,,,,,,,,,,,,,,,,,
Team,步行者,印第安纳州,USA,银行家人寿球馆,50000,http://gmgames.org/dm16logos/Team11.png,中央,印第安纳州,印第安纳州,,,,,,,,,,,,,,,,,,,,
Team,快船,洛杉矶,USA,斯台普斯中心球馆,50000,http://gmgames.org/dm16logos/Team12.png,太平洋,洛杉矶,加州,,,,,,,,,,,,,,,,,,,,
Team,湖人,洛杉矶,USA,斯台普斯中心球馆,50000,http://gmgames.org/dm16logos/Team13.png,太平洋,洛杉矶,加州,,,,,,,,,,,,,,,,,,,,
Team,灰熊,孟菲斯,USA,联邦快递球馆,50000,http://gmgames.org/dm16logos/Team14.png,西南,孟菲斯,田纳西州,,,,,,,,,,,,,,,,,,,,
Team,热火,迈阿密,USA,美国航空球馆,50000,http://gmgames.org/dm16logos/Team15.png,东南,迈阿密,佛罗里达,,,,,,,,,,,,,,,,,,,,
Team,雄鹿,密尔沃基,USA,费哲广场,50000,http://gmgames.org/dm16logos/Team16.png,中央,密尔沃基,威斯康辛州,,,,,,,,,,,,,,,,,,,,
Team,森林狼,明尼苏达州,USA,标靶中心,50000,http://gmgames.org/dm16logos/Team17.png,西北,明尼苏达州,明尼苏达州,,,,,,,,,,,,,,,,,,,,
Team,鹈鹕,新奥尔良,USA,冰沙王中心,50000,http://gmgames.org/dm16logos/Team18.png,西南,新奥尔良,路易斯安那州,,,,,,,,,,,,,,,,,,,,
Team,尼克斯,纽约,USA,麦迪逊广场花园,50000,http://gmgames.org/dm16logos/Team19.png,大西洋,纽约,纽约,,,,,,,,,,,,,,,,,,,,
Team,雷霆,俄克拉荷马城,USA,切萨皮克能源球馆,50000,http://gmgames.org/dm16logos/Team20.png,西北,俄克拉荷马城,俄克拉何马州,,,,,,,,,,,,,,,,,,,,
Team,魔术,奥兰多,USA,安利中心,50000,http://gmgames.org/dm16logos/Team21.png,东南,奥兰多,佛罗里达,,,,,,,,,,,,,,,,,,,,
Team,76人,费城,USA,富国银行中心,50000,http://gmgames.org/dm16logos/Team22.png,大西洋,费城,宾西法尼亚,,,,,,,,,,,,,,,,,,,,
Team,太阳,凤凰城,USA,拖金斯迪克度假酒店球馆,50000,http://gmgames.org/dm16logos/Team23.png,太平洋,凤凰城,亚利桑那州,,,,,,,,,,,,,,,,,,,,
Team,开拓者,波特兰,USA,摩达中心,50000,http://gmgames.org/dm16logos/Team24.png,西北,波特兰,俄勒冈州,,,,,,,,,,,,,,,,,,,,
Team,国王,萨克拉门托,USA,黄金一号中心,50000,http://gmgames.org/dm16logos/Team25.png,太平洋,萨克拉门托,加州,,,,,,,,,,,,,,,,,,,,
Team,马刺,圣安东尼奥,USA,ATT中心,50000,http://gmgames.org/dm16logos/Team26.png,西南,圣安东尼奥,德州,,,,,,,,,,,,,,,,,,,,
Team,猛龙,多伦多,Canada,加拿大丰业银行球馆,50000,http://gmgames.org/dm16logos/Team27.png,大西洋,多伦多,加拿大,,,,,,,,,,,,,,,,,,,,
Team,爵士,犹他州,USA,威英特智能家居球馆球馆,50000,http://gmgames.org/dm16logos/Team28.png,西北,犹他州,犹他州,,,,,,,,,,,,,,,,,,,,
Team,奇才,华盛顿,USA,首都一号球馆,50000,http://gmgames.org/dm16logos/Team29.png,东南,华盛顿,特区,,,,,,,,,,,,,,,,,,,,
NewFranchiseLogo,,,,,,http://gmgames.org/dm16logos/Team30.png,,,,,,,,,,,,,,,,,,,,,,,
,,,,,,,,,,,,,,,,,,,,,,,,,,,,,
Type,FirstName,Last Name,Position,Age,Height,Weight,Team ID,Defence,TurnOvers,FTA,FTPerc,2PTA,2PTPerc,3PTA,ThreePerc,OffReb,Fame,DefReb,FastBreak,Assists,Personality,Potential,Steals,Blocks,Stamina,Trait,,,
//球员,//姓,//名,//位置,//年龄,//身高,//体重,//球队,//防御,//失误,//罚篮出手,//罚中率,//2分出手,//2分中率,//3分出手,//3分中率,//进攻篮板,//名望,//防守篮板,//快攻,//助攻,//人品,//潜力,//抢断,//盖帽,//体力,//特性,//城市,//省份,
// 索引,//仅一个,//全部,//C PF SF SG PG,//19-40,//170-222,//160-290,//0-29,//24-99,//0.3-4,//0.3-9,//0.3-0.9,//2-17,//0.3-0.7,//0.1-9,//0.1-0.5,//0.2-5,//1-100,//1-11,//10-100,//0.2-11,//15-98,//35-85,//0.1-2,//0-3,//32-100,//CG EX HF HH IH PT R SP,//城市,//省份,
players,肯特,贝兹莫尔,SG,29,196,200,0,84,1.98,2.8,0.719,6.5,0.508,4.5,0.329,0.50,57,3.4,66,2.4,88,80,1.59,0.8,72,,,,
players,迈尔斯,普拉姆利,C,30,211,226,0,54,0.56,1.7,0.533,2.7,0.667,0,0,0.9,43,1.3,42,0.9,70,53,0.33,0.22,40,,,,
players,德维恩,戴德蒙,C,29,213,222,0,65,1.42,1.7,0.86,4.8,0.563,3.4,0.387,1.6,47,5.5,55,1.3,82,61,0.98,1.12,71.88,,,,
players,特雷,杨,PG,20,188,164,0,71,3.92,4.5,0.806,8.9,0.461,5.6,0.317,0.7,75,2.6,84,7.7,88,80,0.87,0.22,82.92,R,,,
players,亚历克斯,莱恩,C,25,216,236,0,71,1.46,2.8,0.684,5.8,0.534,0.6,0.324,2.1,51,3.5,48,1.0,57,60,0.38,0.91,59.5,,,,
players,托里恩,普林斯,SF,24,203,200,0,72,1.97,2.2,0.835,5,0.5,5.8,0.376,0.5,61,3.3,78,1.9,76,60,1.03,0.36,77.9,,,,
players,贾斯汀,安德森,SG,25,198,206,0,62,0.41,0.7,0.762,1.5,0.533,1.2,0.2,0.30,0,1.1,68,0.4,88,56,0.34,0.22,36.25,,,,
players,文斯,卡特,SG,42,198,200,0,69,0.66,0.7,0.675,1.9,0.526,3.6,0.391,0.4,99,2.1,74,0.9,83,65,0.54,0.30,52.5,HF,,,
players,约翰,科林斯,PF,21,208,214,0,82,2.04,4.3,0.762,10.7,0.616,2.5,0.375,3.6,63,6,74,2.0,88,74,0.31,0.4,82.29,,,,
players,凯文,赫尔特,SG,20,201,172,0,64,1.58,0.9,0.745,3.6,0.472,4.5,0.389,0.7,41,2.5,65,2.8,74,67,0.87,0.35,76.6,R,,,
players,德安德烈,本布里,SF,24,198,190,0,67,1.74,1.6,0.598,5.3,0.4905,2.1,0.29,0.50,55,3.6,64,2.5,77,64,1.21,0.54,70.2,,,,
players,奥马里,斯佩尔曼,SF,21,206,222,0,54,0.64,1.0,0.698,2.7,0.407,2.8,0.347,1.5,45,2.6,66,1.0,66,56,0.59,0.55,56.25,R,,,
players,亚历克斯,波伊思雷斯,PF,25,201,216,0,56,0.56,1.2,0.524,2.6,0.5769,1,0.389,1.3,52,1.9,66,0.7,77,53,0.17,0.44,48.125,,,,
players,杰伦,亚当斯,PG,22,188,204,0,48,0.38,0.2,1,0.5,0,0.9,0.5,0.2,17,0.5,45,1.0,76,42,0.23,0.15,33.54,R,,,
players,戈登,海沃德,SF,28,203,204,1,71,1.5,2.4,0.852,5.4,0.5,3.6,0.337,0.8,75,3.7,80,3.5,89,77,0.94,0.33,74.16,,,,
players,艾尔,霍福德,C,32,208,222,1,77,1.54,1.1,0.796,7.3,0.589,3.2,0.367,2.0,88,4.9,64,4,88,78,0.9,1.46,80,HH,,,
players,凯里,欧文,PG,26,191,176,1,68,2.63,3.6,0.871,12,0.533,6.2,0.413,1.2,90,3.6,96,6.9,88,87,1.63,0.49,88.3,SP,,,
players,马库斯,斯玛特,PG,24,193,200,1,86,1.46,1.6,0.768,2.4,0.5,4.4,0.354,0.7,63,2.2,78,4.1,72,70,1.68,0.41,76.45,HH,,,
players,杰森,塔特姆,SF,20,203,186,1,81,1.47,3.1,0.862,9.2,0.489,4.1,0.382,1.0,81,5.3,84,1.9,89,87,1.05,0.83,85,SP,,,
players,马库斯,莫里斯,PF,29,206,214,1,75,1.24,2.1,0.864,6,0.53,5.1,0.403,0.9,64,5.1,67,1.4,88,60,0.6,0.31,77.7,,,,
players,阿隆,贝恩斯,C,32,208,236,1,81,0.82,1.4,0.848,3,0.5,1.4,0.333,1.8,65,2.6,53,1.1,80,43,0.18,0.65,51.04,,,,
players,杰伦,布朗,SG,22,201,204,1,85,1.36,2.6,0.676,7.1,0.521,3.7,0.327,1.0,67,3.3,85,1.3,89,72,0.95,0.49,73.95,,,,
players,特里,罗齐尔,PG,24,188,172,1,64,0.86,1.2,0.817,4.2,0.4047,4.3,0.353,0.4,54,3.7,74,3.1,88,64,0.93,0.29,68.12,,,,
players,盖尔雄,亚布塞莱,SF,23,203,236,1,52,0.37,0.4,0.75,1,0.6,0.6,0.235,0.5,12,0.6,41,0.4,73,37,0.23,0.23,31.66,,,,
players,罗伯特,威廉姆斯,C,21,206,214,1,51,0.35,0.4,0.6,1.7,0.737,0,0,0.8,44,1.6,49,0.2,42,51,0.26,1.39,38.13,R,,,
players,谢米,奥杰莱,SF,24,201,214,1,58,0.32,0.5,0.682,1.2,0.583,1.7,0.309,0.4,45,1.2,43,0.4,71,51,0.2,0.07,42.3,,,,
players,丹尼尔,泰斯,SF,26,206,220,1,64,0.54,1.4,0.75,3.3,0.636,1.1,0.451,1.4,50,2.5,64,1.2,86,51,0.33,0.65,51.45,,,,
players,布拉德,沃纳梅克,SG,29,193,190,1,51,0.52,0.6,0.933,1.6,0.4375,1.1,0.516,0.1,50,0.9,66,1.4,71,43,0.33,0.04,39.38,R,,,
players,阿伦,克拉布,SG,26,198,196,2,64,1.11,1.4,0.75,3.7,0.243,6.2,0.394,0.4,53,2.9,61,1.1,83,62,0.57,0.31,74.16,,,,
players,德马雷,卡罗尔,SF,32,203,192,2,78,1.12,3.8,0.75,4.1,0.439,4.5,0.339,1.1,64,4.3,71,1.3,88,64,1.3,0.51,73.54,,,,
players,贾里德,杜德利,PF,33,201,201,2,71,0.84,0.8,0.629,1.5,0.6,2.8,0.322,0.6,60,2.2,47,1.5,75,55,0.64,0.3,65,,,,
players,乔,哈里斯,SG,27,198,198,2,58,1.53,1.7,0.853,4.8,0.5208,5.1,0.478,0.60,71,2.9,73,2.6,81,64,0.51,0.19,82.71,,,,
players,丹吉洛,拉塞尔,PG,23,196,176,2,61,2.95,2.3,0.825,10.5,0.486,7.6,0.372,0.6,87,3.2,76,6.7,72,81,1.11,0.3,82.91,HH,,,
players,艾德,戴维斯,C,29,208,222,2,74,0.87,2,0.6,3.9,0.623,0,0,2.8,55,5.9,68,0.8,72,61,0.48,0.44,58.33,,,,
players,霍利斯,杰弗森,SF,24,201,194,2,74,1.12,3.2,0.65,7.6,0.421,0.9,0.2,1.4,74,4,77,1.7,87,71,0.69,0.47,66.46,,,,
players,贾莱特,阿伦,C,20,208,214,2,87,1.37,3.4,0.727,6.8,0.618,0.7,0.154,2.5,77,6.2,74,1.5,89,77,0.58,1.58,76.25,,,,
players,沙巴兹,纳皮尔,PG,27,185,158,2,62,1.24,2.6,0.824,3.9,0.4358,4.1,0.335,0.3,59,1.5,71,2.7,87,51,0.8,0.32,57.5,,,,
players,卡里斯,勒韦尔,SG,24,201,184,2,74,2.1,3.5,0.729,9.5,0.4947,4.2,0.306,0.8,70,3.1,78,4.0,88,71,1.3,0.45,78.54,,,,
players,斯潘塞,丁威迪,PG,25,198,182,2,67,2.33,5.1,0.795,6.9,0.5217,5.3,0.366,0.4,77,2.0,78,5.0,88,69,0.57,0.22,79.58,,,,
players,扎南,穆萨,SG,19,206,176,2,52,0.5,0.2,0,1.4,0.714,1.1,0,0.1,41,0.4,57,0.1,87,45,0.25,0,28.75,R,,,
players,罗季翁斯,库鲁兹,PF,21,206,200,2,67,1.19,1.4,0.881,4.5,0.555,2.6,0.304,0.9,33,2.7,53,0.8,73,55,0.8,0.6,62.5,R,,,
players,特雷韦恩,特雷厄姆,SF,25,198,204,2,62,0.61,0.8,0.778,1.8,0.444,3.7,0.274,0.7,61,2.2,65,1.0,76,61,0.35,0.22,66.25,,,,
players,尼古拉斯,巴图姆,SF,30,203,182,3,74,1.6,1.3,0.859,3.7,0.5405,3.9,0.393,0.90,74,4.3,74,3.4,88,66,0.98,0.55,85.63,,,,
players,俾斯麦,比永博,C,26,206,232,3,84,0.53,1.8,0.677,2.8,0.574,0,0,1.4,73,3.2,54,0.6,77,53,0.24,1,50.625,,,,
players,马文,威廉姆斯,PF,32,206,214,3,74,0.53,1.2,0.75,3.5,0.5428,5.3,0.367,0.9,69,4.7,67,1.2,88,58,0.88,0.76,79.16,,,,
players,科迪,泽勒,C,26,213,218,3,72,1.28,2.8,0.803,6.4,0.59375,0.5,0.25,2.4,67,4.5,56,2.1,88,71,0.77,0.88,72.7,,,,
players,迈克尔,吉尔克里斯特,SF,25,201,210,3,65,0.75,2.2,0.773,4.9,0.51,0.8,0.275,0.16,58,2.6,61,0.9,78,58,0.51,0.7,60.83,,,,
players,肯巴,沃克,PG,28,185,174,3,77,2.52,5.3,0.83,11.1,0.486,9.2,0.359,0.60,84,3.7,87,5.7,88,85,1.23,0.45,92.1,HH,,,
players,杰里米,兰姆,SG,26,196,168,3,61,0.96,3.2,0.862,8.4,0.5,4,0.33,0.8,63,4.6,77,2.1,71,55,1.07,0.3,79.16,,,,
players,托尼,帕克,PG,36,188,168,3,69,1.29,2.4,0.726,7.6,0.473,0.8,0.225,0.3,68,1.3,84,3.8,78,65,0.37,0.12,57.9,HF,,,
players,弗兰克,卡明斯基,PF,25,213,218,3,68,0.69,1.3,0.629,2.1,0.619,1.8,0.348,0.7,55,1.7,61,1.0,64,56,0.19,0.19,42.5,,,,
players,马利克,蒙克,SG,21,191,182,3,56,1.26,1.6,0.891,4,0.45,4.8,0.328,0.2,50,1.5,74,1.8,71,74,0.49,0.26,57.29,,,,
players,迈尔斯,布里奇斯,SF,20,201,204,3,71,0.67,1.1,0.742,3.5,0.543,2.2,0.31,0.7,61,2.9,71,0.9,88,76,0.57,0.62,59.79,R,,,
players,谢尔文,麦克,SG,28,191,184,3,67,1.15,1.5,0.695,4.9,0.428,2.3,0.359,0.3,70,1.6,73,3.3,88,52,0.85,0.07,66.46,,,,
players,吉列尔莫,埃尔南戈麦斯,C,24,211,218,3,58,1,2.5,0.676,4.5,0.53,0.7,0.433,2,75,3.5,64,0.9,78,58,0.24,0.33,48.5,,,,
players,德维恩,培根,SG,23,201,200,3,54,0.48,0.5,0.833,2.4,0.541,1,0.52,0.1,47,1.4,69,0.7,88,49,0.12,0.04,42.1,,,,
players,德文特,格雷厄姆,PG,24,188,168,3,49,0.68,0.7,0.727,1.8,0.571,2.4,0.307,0.1,49,1.1,69,2.2,88,52,0.55,0.06,47.1,R,,,
players,奥托,波特,SF,25,203,180,4,72,1.06,1.6,0.773,6.5,0.507,4.3,0.389,1,72,4.5,78,2.0,88,72,1.45,0.53,81.3,,,,
players,扎克,拉文,SG,23,196,168,4,67,3.28,5.6,0.858,12.7,0.496,5.1,0.366,0.6,92,4.0,91,4.5,88,86,0.93,0.41,91,SP,,,
players,罗宾,洛佩斯,C,30,213,232,4,82,1.25,1.4,0.72,5.6,0.589,0.4,0.286,1.5,66,1.7,58,1.0,89,60,0.17,0.98,58.5,,,,
players,克里斯蒂亚诺,费利西奥,PF,26,206,242,4,61,0.44,0.9,0.676,2.3,0.565,0.1,0,0.9,47,1.8,67,0.5,77,55,0.13,0.1,41.5,,,,
players,劳里,马尔卡宁,PF,21,213,208,4,54,1.53,3.4,0.877,8.8,0.489,6.7,0.383,1.3,78,7.7,72,1.4,88,84,0.79,0.66,88,HH,,,
players,温德尔,卡特,PF,19,208,234,4,71,1.48,2.5,0.795,7.7,0.519,0.7,0.188,2.0,74,5.0,72,1.8,88,82,0.59,1.32,72.5,R,,,
players,克里斯,邓恩,PG,24,193,186,4,66,2.48,1.5,0.784,9.3,0.451,1.8,0.317,0.3,68,3.8,67,6.3,86,75,1.42,0.48,84.6,,,,
players,登泽尔,瓦伦丁,SG,25,198,192,4,72,1.10,0.5,0.754,3.2,0.4375,4.3,0.374,0.6,47,4.5,76,3.2,88,67,0.84,0.13,71.3,,,,
players,钱德勒,哈奇森,PF,22,201,178,4,47,0.57,0.9,0.605,3.7,0.51,1.1,0.28,0.7,25,3.5,61,0.8,88,51,0.52,0.14,62.3,R,,,
players,韦恩,塞尔登,SG,24,196,208,4,52,0.94,1.1,0.776,3.5,0.428,2.1,0.353,0.4,54,1.3,67,1.3,69,51,0.33,0.15,56.5,,,,
players,卢瓦乌,卡巴罗,SG,23,198,186,4,55,0.34,0.6,0.706,1.5,0.4,1.6,0.277,0.2,20,1.2,69,0.3,69,50,0.24,0.07,38.1,,,,
players,瑞安,阿西迪亚科诺,PG,24,191,176,4,53,0.78,0.9,0.911,1.6,0.5,2.9,0.364,0.2,42,2.1,69,3.6,88,65,0.92,0.03,71.3,,,,
players,安东尼奥,布莱克尼,SG,22,193,178,4,50,0.58,1.3,0.684,5.1,0.412,1.7,0.458,0.1,49,1.4,69,0.6,72,55,0.23,0.19,48.9,,,,
players,沙奎尔,哈里森,SG,25,191,172,4,52,0.73,1.6,0.634,3.6,0.444,1.2,0.262,0.3,52,2.3,63,1.7,64,49,1.19,0.37,55.8,,,,
players,凯文,乐福,PF,30,208,228,5,64,2.44,6,0.87,7.4,0.378,6.2,0.375,1.7,79,9.3,61,2.0,98,69,0.22,0.22,74.2,GL,,,
players,特里斯坦,汤普森,C,27,206,216,5,77,1.43,2.4,0.647,9.4,0.526,0,0,4.4,68,6.7,71,2.1,88,59,0.8,0.46,82.1,,,,
players,JR,史密斯,SG,33,198,204,5,56,1.0,0.9,0.80,3.7,0.378,3.5,0.308,0,68,1.6,48,1.9,64,50,1,0.27,62.1,TU,,,
players,布兰登,奈特,PG,27,191,176,5,55,0.61,0.7,0.67,1.5,0.466,2.9,0.231,0.1,64,0.9,70,1.5,65,44,0.22,0.0,45.6,,,,
players,乔丹,克拉克森,SG,26,196,176,5,60,1.75,2.2,0.835,9.3,0.505,5.6,0.311,1.0,73,2.4,82,2.5,88,64,0.72,0.20,76,SP,,,
players,约翰,亨森,C,28,211,208,5,74,0.86,0.7,0.6,2.6,0.538,2.2,0.355,1.1,54,3.9,60,1.0,73,54,0.5,0.79,47.9,,,,
players,马修,德拉维多瓦,PG,28,193,180,5,72,1.45,1.4,0.783,2.9,0.517,3.3,0.344,0.2,67,1.8,66,4.4,88,61,0.31,0.06,61.8,,,,
players,科林,塞克斯顿,PG,20,191,172,5,70,2.21,2.8,0.85,11.2,0.41,2.9,0.394,0.7,70,2.3,89,2.3,93,82,0.57,0.05,83.5,R,,,
players,马基斯,克里斯,PF,21,208,212,5,61,0.78,0.9,0.75,2.2,0.5,1.8,0.31,0.8,42,2.0,51,0.5,67,54,0.3,0.26,41.8,,,,
players,切迪,奥斯曼,SF,23,203,196,5,69,1.6,2.4,0.761,6.1,0.491,4.8,0.345,0.6,60,4.1,75,2.3,84,65,0.73,0.16,85.6,,,,
players,钱宁,弗莱,PF,35,211,232,5,51,0.34,0.4,0.75,1,0.3,2.1,0.4,0.1,61,1.3,48,0.6,97,35,0.17,0.14,39.7,GR,,,
players,拉里,南斯二世,PF,26,206,208,5,77,1.31,2.1,0.697,5.8,0.55,1.2,0.35,2.6,75,5.6,77,3.1,80,74,1.39,0.65,74.6,,,,
players,安特,日日奇,C,22,211,226,5,60,0.91,2,0.739,5.2,0.537,0,0,1.7,85,3.6,61,0.7,74,58,0.25,0.39,55.4,,,,
players,大卫,努瓦巴,SG,26,193,190,5,68,0.5,2.1,0.641,3.4,0.529,1.5,0.304,0.8,41,2.3,69,1,87,60,0.63,0.3,57.9,,,,
players,尼克,斯陶斯卡斯,SG,25,198,186,5,61,0.5,0.8,0.895,2.3,0.478,2.8,0.338,0.2,51,1.6,74,1.3,86,55,0.31,0.1,51.5,,,,
players,蒂姆,哈达威二世,SF,26,198,186,6,67,1.74,4.8,0.845,8.1,0.444,7.4,0.343,0.6,63,2.9,78,2.6,86,74,0.89,0.13,86.8,,,,
players,库特尼,李,SG,33,196,182,6,71,0.33,0.9,0.706,2.1,0.428,1.1,0.30,0.3,49,1.3,67,1.1,75,54,0.56,0.11,44.6,,,,
players,德怀特,鲍威尔,PF,27,211,218,6,69,0.79,2.9,0.767,4.2,0.659,1.5,0.25,1.4,43,3.1,60,1.1,76,57,0.5,0.59,57.9,,,,
players,卢卡,东契奇,SG,19,203,206,6,72,3.34,6.4,0.726,8.9,0.494,7,0.353,1.1,84,6.1,84,5.7,98,86,1.02,0.29,87.1,R,,,
players,克里斯塔普斯,波尔津吉斯,PF,23,221,218,6,74,1.78,4.1,0.804,10.6,0.471,4.2,0.361,1.6,76,5.4,69,1.3,74,72,0.73,2.03,84.5,IH,,,
players,德克,诺维茨基,PF,40,213,222,6,57,0.28,0.6,0.833,1.9,0.473,3.4,0.30,0,97,2,54,0.4,99,45,0.17,0.31,45.4,HF,,,
players,何塞,巴里亚,PG,34,183,168,6,60,1.89,2.1,0.705,6.7,0.477,3.4,0.297,0.3,72,2.2,74,5.6,85,50,0.58,0.03,61.3,IH,,,
players,贾斯汀,杰克逊,SF,23,203,190,6,52,0.39,0.9,0.83,2.6,0.5,2.9,0.343,0.4,40,2.2,63,1.2,79,55,0.41,0.22,60.8,,,,
players,德文,哈里森,PG,36,191,168,6,58,0.77,1.9,0.764,2.1,0.523,2.8,0.306,0.1,66,1.4,69,1.4,88,59,0.6,0.23,51.3,,,,
players,特雷,伯克,SG,26,185,174,6,58,1,1.8,0.857,4.3,0.465,2.2,0.389,0.8,49,1.2,69,1.9,87,57,0.88,0.1,61.6,,,,
players,马克西,克勒贝尔,PF,27,211,200,6,72,0.74,1,0.788,2.2,0.636,3.1,0.333,1.1,54,2.8,62,0.8,77,59,0.52,1.17,61,,,,
players,杰伦,布伦森,SG,22,191,172,6,58,1.04,1.2,0.692,4.4,0.477,2,0.363,0.3,38,1.8,68,2.5,78,52,0.46,0.06,58.5,R,,,
players,芬尼,史密斯,PF,25,203,200,6,72,1,1.4,0.679,3.5,0.571,3.0,0.333,1.8,46,3.2,64,0.9,78,64,1,0.48,73.1,,,,
players,瑞安,布罗科夫,SG,28,201,196,6,49,0.18,0.1,1,0.5,0.6,1.8,0.392,0.1,20,0.9,67,0.5,85,45,0.07,0.11,36.5,R,,,
players,萨拉赫,梅杰里,C,32,218,222,6,65,0.3,0.6,0.75,1.6,0.4375,0.2,0.2,0.90,47,1.9,54,0.6,69,44,0.2,0.35,37.7,,,,
players,保罗,米尔萨普,PF,34,203,224,7,68,1.31,3.6,0.719,7.3,0.534,2.1,0.354,2.2,78,4.8,70,1.9,87,57,1.31,0.88,73.9,,,,
players,尼古拉,约基奇,C,24,213,226,7,58,3.26,4.6,0.848,11.7,0.564,3.5,0.307,2.8,95,7.9,53,7.7,67,72,1.43,0.64,85.6,IH,,,
players,加里,哈里斯,SG,24,193,190,7,68,1.18,2.9,0.80,7.6,0.486,4.9,0.319,0.6,61,2.3,69,2.6,88,64,0.97,0.41,81.3,,,,
players,梅森,普拉姆利,C,28,211,232,7,71,1.59,2.7,0.541,5.4,0.629,0.1,0.286,2.2,45,4.0,47,2.7,72,55,0.86,0.9,62.9,,,,
players,威尔,巴顿,SG,28,198,158,7,70,1.45,1.9,0.795,6.1,0.426,4.2,0.365,0.8,61,3.5,75,3.4,77,55,0.35,0.5,75.4,,,,
players,贾马尔,默里,PG,22,193,188,7,61,2.38,2.9,0.84,10.5,0.457,5.4,0.365,0.9,73,3.3,82,5.0,41,70,0.85,0.38,89.4,,,,
players,特雷,莱尔斯,PF,23,208,212,7,48,1.11,2,0.694,5,0.54,3.3,0.254,0.7,45,3.3,58,1.4,87,52,0.51,0.42,58.8,,,,
players,迈克尔,波特,SF,20,208,196,7,47,1,3,0.778,6.7,0.343,3.3,0.30,1.3,62,5.3,78,0.3,88,78,1,0.33,56.8,R,,,
players,胡安,埃尔南戈麦斯,PF,23,206,208,7,46,0.61,1.5,0.762,2.3,0.565,2.9,0.388,1.1,57,3.3,69,0.9,64,43,0.43,0.39,66,,,,
players,以赛亚,托马斯,PG,30,175,168,7,42,2.33,2.7,0.75,3.6,0.472,5.7,0.353,0.7,67,0.7,82,2.7,71,47,0.00,0.33,56.8,,,,
players,托里,克雷格,SF,28,198,196,7,57,0.72,1,0.647,2.7,0.555,2.6,0.293,1.4,55,2.5,58,0.9,74,48,0.55,0.62,66.25,,,,
players,泰勒,莱登,PF,22,206,200,7,68,0.17,0.1,0.33,0.3,0.333,0.4,0.4,0.3,20,0.5,51,0.2,81,41,0.09,0,28.1,,,,
players,马利克,比斯利,SG,22,196,178,7,43,0.63,0.8,0.891,4.3,0.581,4.8,0.435,0.4,31,2.1,54,1.2,57,46,0.66,0.10,70.2,,,,
players,蒙特,莫里斯,PG,23,188,158,7,64,0.63,0.9,0.786,7.1,0.45,2.8,0.425,0.4,37,2.2,49,3.9,88,56,0.92,0.05,71.6,,,,
players,贾里德,范德比尔特,SG,19,206,194,7,38,0.33,0.7,0.25,0.8,0.20,0,0,0.5,18,1.5,52,0.2,85,31,0.33,0.17,26.3,R,,,
players,布雷克,格里芬,PF,29,208,228,8,71,3.67,7.8,0.748,11.6,0.543,6.9,0.366,1.4,89,6.6,82,5.4,72,85,0.7,0.4,95,SP,,,
players,安德烈,德雷蒙德,C,25,211,127,8,81,2.29,5.1,0.563,13.2,0.545,0.6,0.121,5.2,88,9.9,77,1.2,84,82,1.68,1.77,88.9,,,,
players,雷吉,杰克逊,PG,28,191,188,8,58,1.78,3.1,0.879,6.8,0.4558,5.7,0.361,0.6,59,2.2,81,4.4,75,70,0.69,0.1,80.4,,,,
players,乔恩,洛伊尔,PF,29,208,206,8,64,0.68,0.9,0.759,2.6,0.692,0.3,0.1,0.6,25,1.9,53,0.4,71,52,0.35,0.12,41.8,,,,
players,兰斯顿,加洛韦,SG,27,188,182,8,44,0.32,1,0.814,2.5,0.44,4.6,0.336,0.6,48,1.7,62,1.0,85,55,0.46,0.09,63.5,,,,
players,伊斯梅尔,史密斯,PG,30,183,158,8,50,1.18,0.9,0.774,5.4,0.44,2.9,0.354,0.2,60,2.1,69,3.2,88,54,0.45,0.24,66.3,,,,
players,格伦,罗宾逊三世,SG,25,198,202,8,48,0.52,1,0.818,2.3,0.434,1.3,0.302,0.3,55,0.9,68,0.4,73,52,0.33,0.15,47.7,,,,
players,卢克,肯纳德,SG,22,196,182,8,52,0.8,0.9,0.763,3.8,0.473,3.9,0.388,0.2,46,2.7,57,1.5,77,52,0.44,0.2,63.9,,,,
players,索恩,梅克,C,22,216,202,8,64,0.39,1.0,0.605,1.6,0.50,2.3,0.337,0.5,49,2.2,54,0.5,78,47,0.32,0.51,45.2,,,,
players,何塞,卡尔德隆,PG,37,191,182,8,45,0.76,0.2,0.818,1.4,0.5,1.2,0.25,0.2,61,1.0,51,2.5,91,40,0.35,0.07,48.1,,,,
players,扎扎,帕楚里亚,C,35,211,250,8,57,0.86,2.1,0.775,3,0.466,0.1,0,1.8,67,2.7,31,1.4,79,37,0.59,0.31,49.5,,,,
players,韦恩,艾灵顿,SG,31,193,182,8,51,0.6,0.6,0.842,1.2,0.416,6.5,0.352,0.2,48,1.8,56,1.1,87,50,0.9,0.1,66.6,,,,
players,斯维亚托斯拉夫,米哈伊柳克,SG,21,203,174,8,42,0.53,0.5,0.6,1.2,0.333,2.2,0.322,0.2,33,0.7,59,0.9,88,49,0.33,0.03,42.3,R,,,
players,布鲁斯,布朗,SG,22,196,172,8,50,0.71,0.9,0.688,3.4,0.411,1.4,0.267,0.7,35,2.0,64,1.3,88,52,0.44,0.48,61.8,R,,,
players,凯里,托马斯,PG,22,191,190,8,46,0.17,0.5,0.667,1.1,0.272,1.6,0.345,0.2,32,0.7,51,0.3,88,41,0.28,0.22,38.3,R,,,
players,史蒂芬,库里,PG,30,191,172,9,69,2.82,4.6,0.92,7.9,0.544,11.7,0.446,0.7,100,4.6,97,5.3,100,93,1.29,0.39,91.5,HH,,,
players,凯文,杜兰特,SF,30,206,218,9,88,3.03,7,0.892,13.7,0.569,5.1,0.368,0.5,95,6.4,96,5.8,82,96,0.78,1.18,93.9,,,,
players,克莱,汤普森,SG,29,201,196,9,86,1.53,2.3,0.813,10.7,0.514,7.5,0.398,0.5,90,3.5,94,2.3,98,85,1.12,0.64,91.5,HH,,,
players,德雷蒙德,格林,PF,28,201,208,9,89,2.62,1.4,0.708,4,0.55,2.5,0.248,1,88,6.5,88,7.3,71,81,1.49,1.04,84.8,CG,,,
players,安德烈,伊戈达拉,SF,35,198,196,9,81,0.74,1.1,0.583,2.5,0.6,2.2,0.35,0.7,78,3.2,84,3.3,78,55,0.89,0.81,69.6,,,,
players,肖恩,利文斯顿,PG,33,201,174,9,67,0.57,0.9,0.814,3.7,0.491,0,0,0.7,65,1.2,69,1.9,75,48,0.53,0.49,51.8,,,,
players,德马库斯,考辛斯,C,28,211,244,9,74,2.29,5.2,0.781,8.2,0.487,3,0.286,1.4,88,6.5,76,3.5,51,81,1.29,1.43,70.8,,,,
players,约纳斯,杰雷布科,PF,31,208,210,9,46,0.65,1.1,0.823,2.3,0.608,2.8,0.355,1.2,58,3.4,64,1.5,88,40,0.31,0.2,57.3,,,,
players,雅各布,埃文斯,SG,21,198,190,9,40,0.26,0,0,0.8,0.375,0.3,0.167,0,0,0.3,56,0.6,87,25,0.04,0.04,28.9,R,,,
players,凯文,卢尼,PF,23,206,200,9,65,0.67,1.4,0.628,4.3,0.65,0.1,0.10,2.5,58,3.2,62,1.7,78,58,0.57,0.78,62.1,,,,
players,奎因,库克,PG,25,188,162,9,54,0.63,0.4,0.75,3.3,0.484,2.6,0.375,0.3,61,1.8,66,1.6,77,59,0.33,0.06,48.9,,,,
players,乔丹,贝尔,PF,24,203,204,9,67,0.49,0.4,0.667,2.6,0.528,0,0,0.8,61,1.8,61,1.1,78,67,0.37,0.78,43.3,,,,
players,阿方索,麦金尼,PF,26,203,196,9,41,0.46,0.6,0.516,2.3,0.608,1.7,0.345,1.3,39,2.2,52,0.4,65,49,0.2,0.22,49.2,,,,
players,达米安,琼斯,C,23,213,222,9,62,0.67,1.5,0.649,3.1,0.716,0,0,1.3,51,1.8,58,1.2,79,56,0.5,1.04,55.6,,,,
players,达米恩,李,SG,26,198,190,9,48,0.44,0.8,0.80,1.8,0.555,2.1,0.405,0.3,45,1.7,61,0.2,88,49,0.44,0,44.8,,,,
players,克里斯,保罗,PG,33,183,158,10,68,2.73,3.9,0.847,6.4,0.48,6.1,0.362,0.6,89,3.8,88,8.3,48,59,2.03,0.27,88.1,CG,,,
players,詹姆斯,哈登,SG,29,196,200,10,40,5.43,11.5,0.871,10.9,0.532,13.4,0.367,0.9,98,5.7,98,7.6,72,91,2.12,0.75,97.9,HH,,,
players,克林特,卡佩拉,C,24,211,218,10,84,1.51,3.9,0.626,11.6,0.632,0,0,4.7,78,7.8,76,1.4,88,75,0.58,1.78,90.8,,,,
players,埃里克,戈登,SG,30,193,196,10,54,1.46,2.6,0.803,5.8,0.5,8.7,0.324,0.3,62,2.2,82,2.1,88,49,0.6,0.44,87.7,,,,
players,伊曼,香波特,SG,28,196,200,10,76,0.87,0.9,0.829,3.2,0.406,4.8,0.356,0.5,63,2.5,73,2.1,88,49,1.09,0.46,73.5,,,,
players,PJ,塔克,SF,33,198,222,10,83,0.82,0.9,0.673,2,0.45,4.8,0.362,1.6,61,4.7,78,1.2,88,52,1.68,0.47,93.5,,,,
players,内内,希拉里奥,C,36,211,226,10,52,0.23,1.2,0.743,2.6,0.579,0.1,0,0.8,48,2.2,44,0.6,85,46,0.5,0.4,47.9,,,,
players,杰拉德,格林,SG,33,201,186,10,67,0.77,0.9,0.796,2,0.6,6.2,0.354,0.5,59,2.1,66,0.6,81,48,0.38,0.41,64.1,,,,
players,奥斯汀,里弗斯,SG,26,193,182,10,58,1.04,1.4,0.544,3.4,0.529,4.6,0.316,0.4,57,2,69,2.5,76,54,0.7,0.33,87.5,,,,
players,肯尼斯,法里德,PF,29,203,216,10,57,0.93,2.8,0.618,6.8,0.617,0.7,0.389,2.9,58,4.3,63,0.7,84,55,0.44,0.7,62.9,,,,
players,以赛亚,哈尔滕施泰因,PF,20,213,226,10,53,0.48,0.5,0.786,1.3,0.461,0.2,0.333,0.8,33,1.0,54,0.5,88,45,0.26,0.44,36.87,R,,,
players,加里,克拉克,SF,24,203,204,10,46,0.14,0.2,1,0.3,0.333,2.7,0.29,0.5,34,2.1,60,0.4,77,41,0.41,0.59,49.7,R,,,
players,维克托,奥拉迪波,SG,26,193,190,11,82,2.28,3.9,0.73,10.3,0.466,6,0.343,0.6,79,5.0,86,5.2,89,85,1.67,0.31,86.5,,,,
players,赛迪斯,杨,PF,30,203,200,11,65,1.41,1.7,0.631,8.9,0.561,1.5,0.355,2.4,56,4.0,59,2.2,88,56,1.62,0.48,83.1,,,,
players,泰瑞克,埃文斯,SG,29,198,200,11,61,1.72,2.2,0.761,6.2,0.403,3.3,0.36,0.8,59,2.2,59,2.4,82,53,0.96,0.28,61.8,,,,
players,博扬,波格丹诺维奇,SF,29,203,204,11,49,1.59,3.4,0.816,7.7,0.532,4.7,0.425,0.5,59,3.5,58,1.8,84,65,0.82,0,86,,,,
players,达伦,科里森,PG,31,183,158,11,67,1.59,2.1,0.837,5.8,0.5,2.6,0.417,0.5,62,2.5,82,6,88,64,1.43,0.13,78.5,,,,
players,科里,约瑟夫,PG,27,191,172,11,61,1.1,0.5,0.656,4.6,0.478,2.3,0.329,0.5,56,3.1,73,3.9,85,61,1.03,0.2,73.1,,,,
players,道格,麦克德莫特,SF,27,203,198,11,59,0.5,1.1,0.852,2.2,0.545,2.9,0.404,0.2,36,1.2,60,0.9,85,45,0.9,0.23,55.8,,,,
players,凯尔,奥奎因,C,28,208,226,11,54,0.71,0.4,0.917,2.4,0.541,0.3,0.091,0.6,34,1.9,51,1.2,79,52,0.18,0.53,36.2,,,,
players,迈尔斯,特纳,C,22,211,220,11,77,1.39,2.4,0.721,8.3,0.54,2.3,0.405,1.3,78,5.6,66,1.6,89,79,0.74,2.74,78.7,,,,
players,多曼塔斯,萨博尼斯,PF,22,211,218,11,72,2.14,3.9,0.729,9.1,0.604,0.2,0.571,2.5,68,6.7,69,2.7,88,74,0.71,0.44,71.8,,,,
players,TJ,利夫,PF,21,208,204,11,67,0.25,0.4,0.563,2.2,0.59,0.6,0.208,0.6,40,1.3,58,0.4,69,47,0.1,0.25,37.5,,,,
players,阿龙,霍勒迪,SG,22,185,168,11,47,0.7,0.9,0.882,2.6,0.461,2.6,0.295,0.1,46,1.4,68,2.1,88,45,0.41,0.32,44.5,R,,,
players,韦斯利,马修斯,SG,32,196,200,11,71,1.27,2.5,0.8,4.5,0.444,6,0.381,0.4,60,1.9,72,2.5,88,52,0.75,0.27,82.1,,,,
players,达尼罗,加里纳利,SF,30,208,204,12,68,1.45,5.6,0.909,7.1,0.464,5.5,0.438,0.8,68,5.1,71,2.4,86,65,0.73,0.35,83.5,,,,
players,威尔逊,钱德勒,SF,31,203,204,12,57,1.08,0.5,0.722,2.5,0.48,3.3,0.39,1.2,45,3.4,63,2.0,88,51,0.61,0.5,75,,,,
players,路易斯,威廉姆斯,SG,32,185,158,12,49,2.41,6.4,0.897,11.2,0.446,3.9,0.366,0.4,86,2.5,89,5.4,89,71,0.66,0.14,74.7,EX,,,
players,加莱特,坦普尔,SG,32,198,176,12,58,1.02,1.5,0.747,3.4,0.529,4.1,0.344,0.4,58,2.6,69,1.4,86,51,0.96,0.49,82.3,,,,
players,杰迈克尔,格林,PF,28,206,206,12,54,1.49,1.9,0.784,4.9,0.5306,2.5,0.414,1.7,54,4.6,61,0.8,88,69,0.81,0.64,65,,,,
players,蒙特雷兹,哈勒尔,PF,25,203,218,12,79,1.45,5,0.627,10.2,0.637,0.2,0.091,2.3,62,4.2,62,1.9,88,70,0.9,1.4,74.7,,,,
players,帕特里克,贝弗利,PG,30,185,168,12,72,1.06,1.8,0.773,2.3,0.434,3.5,0.383,0.9,60,4,71,3.6,88,62,0.79,0.56,76.3,,,,
players,卢克,巴莫特,SF,32,203,208,12,82,0.5,1.2,0.4,3,0.5,1.5,0.333,0.5,57,1.2,59,0.5,68,62,0.25,0.25,51.6,,,,
players,吉尔杰斯,亚历山大,PG,20,198,164,12,58,1.85,2.3,0.807,6.6,0.484,1.6,0.309,0.7,44,2.0,62,3.0,88,64,1.1,0.56,73.3,R,,,
players,杰罗姆,罗宾逊,SG,22,196,172,12,39,0.17,0.2,0.667,1.6,0.375,1.7,0.341,0.1,35,1.0,59,0.3,88,39,0.29,0.08,39.3,R,,,
players,兰德里,沙梅特,PG,21,193,164,12,47,0.55,1.1,0.831,2,0.5,4.6,0.406,0.3,53,1.1,68,1.2,82,67,0.53,0.13,63.9,R,,,
players,辛达里厄斯,桑威尔,SG,24,196,196,12,57,0.41,0.5,0.696,0.7,0.428,0.3,0.154,0.1,21,0.7,45,0.3,71,35,0.25,0.07,31.8,,,,
players,蒂龙,华莱士,SG,24,196,180,12,48,0.49,1,0.49,3.4,0.47,0.3,0.2,0.4,54,1.3,59,0.6,82,48,0.38,0.15,41.8,,,,
players,伊维察,祖巴茨,C,21,216,218,12,74,1.08,2.1,0.854,6,0.567,0,0,1.6,69,3.6,54,0.8,88,66,0.15,0.82,53.9,,,,
players,勒布朗,詹姆斯,SF,34,203,226,13,74,3.52,7.5,0.677,13.5,0.577,5.8,0.347,1.0,100,7.7,96,7.8,99,91,1.43,0.64,98,HF,,,
players,布兰登,英格拉姆,SF,21,206,172,13,81,2.57,5.5,0.67,12,0.516,1.8,0.322,0.8,79,4.2,84,3.0,81,84,0.57,0.59,89.8,,,,
players,肯德维尔,波普,SG,26,196,186,13,61,0.72,1.8,0.855,3.4,0.529,4.6,0.343,0.6,58,2.1,71,1.1,81,57,0.88,0.15,69.3,EX,,,
players,拉简,隆多,PG,33,185,168,13,72,2.69,0.8,0.55,5.8,0.448,2.2,0.411,0.7,79,4.1,77,7.1,86,64,0.85,0.15,76.6,CG,,,
players,郎佐,鲍尔,PG,21,198,172,13,84,2.19,1,0.417,4.8,0.479,4.9,0.329,1.1,71,4.2,84,5.4,98,85,1.47,0.4,83.1,,,,
players,迈克,穆斯卡拉,PF,27,211,218,13,46,0.88,1.6,0.818,1.7,0.529,4.2,0.341,1.0,31,3.1,53,1.3,88,45,0.37,0.59,65.2,,,,
players,兰斯,史蒂芬森,SG,28,196,208,13,54,1.27,1.1,0.667,3.4,0.4705,2.8,0.378,0.4,63,2.5,73,2.0,73,64,0.59,0.08,52.5,SP,,,
players,雷吉,布洛克,SG,27,201,186,13,67,1.18,1.4,0.871,3.2,0.4687,6.6,0.393,0.4,54,2.4,86,2.4,94,68,0.59,0.18,84.5,,,,
players,贾维尔,麦基,C,31,213,244,13,47,1.42,2.1,0.651,7.8,0.615,0.2,0.125,2.4,67,4.4,67,0.7,59,53,0.6,1.94,64.8,,,,
players,泰森,钱德勒,C,36,216,218,13,64,0.73,1.4,0.603,1.9,0.6,0,0,1.9,56,3.9,40,0.7,97,48,0.43,0.48,55.4,,,,
players,莫里茨,瓦格纳,C,21,211,218,13,49,0.52,0.7,0.6,1.4,0.5,1.4,0.375,0.4,47,1.1,52,0.4,88,62,0.26,0.13,33.9,R,,,
players,凯尔,库兹马,PF,23,206,200,13,58,1.98,3.4,0.762,9.4,0.574,6.1,0.32,0.9,78,4.8,75,2.5,88,81,0.62,0.36,88.3,SP,,,
players,约什,哈特,SG,23,196,196,13,64,0.96,1.3,0.681,2.9,0.517,4.3,0.333,0.6,56,3.3,75,1.4,82,69,1.0,0.61,73.9,,,,
players,伊萨克,邦加,PG,19,203,162,13,40,0.25,0.9,0.571,1,0.2,0.2,0,0.40,26,0.4,61,0.8,88,55,0.38,0,28.1,R,,,
players,乔纳森,威廉姆斯,PF,23,206,206,13,82,0.29,0.7,0.2,2.9,0.55,0,0,1.6,44,1.4,58,0.6,86,55,0.14,0.57,46.4,R,,,
players,迈克,康利,PG,31,185,158,14,77,1.92,5.3,0.847,9.7,0.4845,6.1,0.35,0.6,83,2.8,88,6.4,88,82,1.41,0.34,89.5,HH,,,
players,钱德勒,帕森斯,SF,30,208,208,14,45,0.83,0.3,1,2.6,0.3846,4.2,0.2,0.2,66,2.3,65,0.8,87,52,0.67,0.17,55.4,GL,,,
players,约纳斯,瓦兰丘纳斯,C,26,213,232,14,82,1.47,3.2,0.8,8.4,0.607,1.0,0.294,2.0,73,5.6,64,1.1,88,76,0.41,0.82,60.6,,,,
players,艾弗里,布拉德利,SG,28,188,164,14,76,1.35,0.6,0.813,5.4,0.444,3.6,0.347,0.7,55,2.0,74,2.1,88,66,0.6,0.29,82.1,,,,
players,凯尔,安德森,SF,25,206,208,14,59,1.35,1.5,0.578,5.6,0.589,0.8,0.265,1.1,67,4.7,55,3.0,88,58,1.26,0.86,82.1,,,,
players,CJ,迈尔斯,SF,31,198,204,14,55,0.56,1,0.809,2.0,0.4,3.6,0.309,0.3,52,1.4,57,0.6,88,48,0.47,0.24,51.3,,,,
players,贾伦,杰克逊二世,PF,19,211,220,14,78,1.69,3.4,0.766,7.8,0.538,2.4,0.359,1.3,74,3.4,71,1.1,87,75,0.9,1.41,74.3,R,,,
players,贾斯汀,霍勒迪,SG,29,198,168,14,42,1.29,1.2,0.89,3.7,0.4324,5.9,0.339,0.5,52,3.6,64,2.0,88,66,1.47,0.29,87.5,,,,
players,德朗,赖特,PG,26,196,172,14,53,0.76,1.3,0.873,4.3,0.488,2,0.315,0.8,53,2,58,2.4,80,55,0.95,0.33,60.4,,,,
players,乔金,诺阿,C,34,211,208,14,78,1.03,2.4,0.705,4.6,0.514,0,0,1.5,54,3.7,51,1.8,88,53,0.47,0.69,52.1,,,,
players,泰勒,多西,SG,23,193,168,14,44,0.38,1.0,0.607,1.8,0.9,1.5,0.279,0.4,47,1.2,51,0.6,86,47,0.24,0.03,39.3,,,,
players,狄龙,布鲁克斯,SG,23,198,204,14,74,1.06,1.7,0.733,4.6,0.413,2.2,0.375,0.5,60,1.2,70,0.9,90,63,0.56,0.22,58.1,,,,
players,伊万,拉布,PF,22,208,200,14,64,0.62,1.2,0.675,3.5,0.6,0.2,0.286,1.3,55,2.4,52,0.9,88,47,0.25,0.25,45.2,,,,
players,杰文,卡特,PG,23,188,182,14,42,0.85,0.5,0.615,2,0.25,2.2,0.232,0.2,53,1.2,54,1.7,84,52,0.81,0.31,50.8,R,,,
players,布鲁诺,卡博克洛,PF,23,206,186,14,53,0.33,0.5,0.833,1.2,0.5,1.4,0.176,0.6,48,1.2,52,0.3,89,45,0.25,0.33,38.5,,,,
players,哈桑,怀特塞德,C,29,213,240,15,82,1.53,3.8,0.432,9.9,0.565,0.3,0.125,3.8,78,8.5,62,0.9,88,72,0.75,2.08,72.9,,,,
players,莱恩,安德森,PF,30,208,218,15,47,0.72,0.8,0.786,1.4,0.5,2,0.25,0.8,53,1.7,47,1,88,46,0.17,0.06,53.5,,,,
players,戈兰,德拉季奇,PG,32,191,172,15,71,2.38,3.1,0.76,8.3,0.457,4.6,0.297,0.5,84,2.2,81,4.5,88,71,0.62,0.25,78.1,,,,
players,詹姆斯,约翰逊,PF,32,206,226,15,67,1.32,1.1,0.723,4.4,0.477,2.6,0.352,0.4,59,2.8,56,2.3,88,58,0.66,0.46,63.3,,,,
players,迪昂,韦斯特,SG,27,193,200,15,56,1.38,0.8,0.471,4.1,0.512,5.9,0.347,0.2,58,2.2,82,2.9,88,71,0.62,0.14,69.7,,,,
players,凯利,奥利尼克,PF,27,213,216,15,58,1.5,2.2,0.792,2.7,0.629,4.1,0.345,0.9,59,3.5,53,1.8,47,48,0.61,0.38,63.5,,,,
players,约什,理查德森,SF,25,198,182,15,54,1.77,3.4,0.864,8,0.4625,6.5,0.369,0.7,40,2.8,51,4.0,87,69,1.05,0.49,92.5,,,,
players,贾斯蒂斯,温斯洛,SF,22,201,204,15,56,2.17,2.2,0.646,7.4,0.459,3.8,0.372,1.0,60,4.5,76,4.2,61,69,1.02,0.29,81.8,,,,
players,巴姆,阿德巴约,C,21,208,232,15,67,1.39,2.7,0.728,5,0.58,0.2,0.111,2,51,4.6,48,1.9,85,66,0.78,0.73,65.4,,,,
players,德维恩,韦德,SG,37,193,200,15,58,2.29,3.3,0.683,8.9,0.483,3.5,0.312,0.9,96,2.8,88,4.3,98,71,0.71,0.53,73.3,HF,,,
players,犹多尼斯,哈斯勒姆,PF,38,203,214,15,49,0.5,0,0,1,0.5,0.5,0,0.2,61,1.2,48,0,89,41,0.0,0,27.9,HH,,,
players,德里克,琼斯二世,SF,22,201,172,15,47,0.64,1.9,0.627,4.1,0.5609,1.4,0.357,1.8,50,2.5,77,0.5,77,55,0.79,0.72,58.1,,,,
players,罗德尼,麦克鲁姆,SG,27,193,186,15,43,1.11,1.0,0.755,4,0.45,3.6,0.347,0.8,51,2.9,53,1.9,88,51,0.57,0.15,72.3,,,,
players,扬尼斯,阿德托昆博,SF,24,211,202,16,88,3.84,9.1,0.72,14.8,0.635,2.5,0.243,2.3,99,10.3,94,6,100,98,1.4,1.45,89.2,HH,,,
players,乔治,希尔,PG,32,191,170,16,51,0.85,1.2,0.825,3.6,0.52,2.4,0.325,0.6,50,1.8,67,2.3,88,65,0.91,0.15,66,,,,
players,埃里克,布莱德索,PG,29,185,172,16,65,2.08,2.8,0.764,7.3,0.6027,4.8,0.316,1,72,3.5,86,5.3,83,71,1.44,0.37,80.6,,,,
players,克里斯,米德尔顿,SF,27,203,212,16,74,2.25,3.2,0.843,8.1,0.4691,6,0.384,0.5,79,5.4,82,4.2,88,77,1.04,0.09,85,,,,
players,尼古拉,米罗蒂奇,PF,28,208,216,16,48,1.06,2.9,0.842,5.3,0.547,7.2,0.369,1.4,63,6.5,58,1.1,88,71,0.63,0.77,78.3,,,,
players,托尼,斯内尔,SG,27,201,196,16,47,0.32,0.6,0.892,2,0.55,2.8,0.398,0.4,57,1.6,55,0.9,80,45,0.37,0.23,55.8,,,,
players,艾森,伊利亚索瓦,PF,31,208,214,16,45,0.75,0.9,0.864,3.2,0.5,2.3,0.369,1.5,52,3,49,0.9,88,35,0.54,0.23,57.1,,,,
players,布鲁克,洛佩斯,C,30,213,244,16,83,0.98,1.3,0.829,3.2,0.625,6.5,0.364,0.3,82,4,49,1.1,100,68,0.57,2.15,78.3,GR,,,
players,DJ,威尔森,PF,23,208,218,16,49,0.63,0.9,0.393,2.4,0.541,2.5,0.373,0.9,43,3.7,46,0.9,88,56,0.4,0.6,58.1,,,,
players,唐特,迪温琴佐,SG,22,196,186,16,44,0.78,0.5,0.818,1.7,0.647,3,0.246,0.6,46,1.9,52,1.2,79,71,0.52,0.26,52.5,R,,,
players,帕特,康诺顿,SG,26,196,190,16,45,0.49,0.6,0.682,2.2,0.636,3,0.288,0.7,42,2.5,53,1.9,76,45,0.44,0.38,55.8,,,,
players,马尔科姆,布罗格登,SG,26,196,196,16,54,1.5,2.5,0.935,8.1,0.543,3.8,0.418,1.0,59,3.7,76,3.4,75,71,0.73,0.21,80.8,,,,
players,克里斯蒂安,伍德,PF,23,211,200,16,39,0.25,1.2,0.667,1.6,0.4375,0.3,0.5,0.3,45,1.2,44,0.2,55,38,0,0,29.6,,,,
players,斯特林,布朗,SG,24,198,208,16,50,0.67,0.5,0.72,2.1,0.571,2.3,0.36,0.5,23,2.3,57,1.2,70,49,0.4,0.1,54,,,,
players,安德鲁,维金斯,SF,24,203,180,17,71,1.84,4.3,0.708,11.7,0.427,4.8,0.336,1.2,84,3.6,88,2.4,83,87,1.05,0.64,92.7,,,,
players,杰夫,蒂格,PG,30,188,168,17,59,2.28,3.6,0.805,7.3,0.452,2.4,0.345,0.3,59,2.6,68,8.1,84,76,1.06,0.39,82.3,,,,
players,戈尔吉,吉昂,C,29,211,218,17,77,0.61,1.2,0.879,3.7,0.54,0.7,0.31,1.0,53,3.1,50,0.9,81,52,0.54,0.51,47.9,,,,
players,泰,吉布森,PF,33,206,214,17,74,1.08,2.4,0.759,7.2,0.569,0.6,0.333,2.5,62,4.1,61,1.0,72,63,0.8,0.56,72.1,,,,
players,罗伯特,考文顿,SF,28,206,196,17,82,1.34,2.5,0.764,4.4,0.5227,6.4,0.378,0.8,68,4.7,71,1.3,88,71,2.11,1.34,91.6,,,,
players,杰里,贝勒斯,SG,30,191,182,17,53,0.9,0.6,0.583,3.5,0.342,3.6,0.307,0.3,57,1.5,64,3.6,88,44,0.52,0.05,62.7,,,,
players,卡尔,唐斯,C,23,213,222,17,68,2.88,5.6,0.835,11.9,0.563,4.6,0.397,3.4,88,8.9,71,3.3,88,84,0.9,1.76,89.2,,,,
players,安东尼,托利弗,PF,33,203,218,17,58,0.52,0.8,0.735,0.6,0.5,2.9,0.403,0.2,43,2.1,45,0.5,71,46,0.3,0.32,51.8,,,,
players,达里奥,沙里奇,PF,24,208,202,17,67,1.17,1.8,0.877,4.3,0.488,4,0.361,1.5,68,3.9,61,1.4,84,65,0.58,0.1,71.8,,,,
players,泰厄斯,琼斯,PG,22,188,176,17,44,0.68,0.9,0.818,4,0.425,1.7,0.293,0.3,48,1.4,74,4.2,83,62,1.34,0.09,63.75,,,,
players,洛尔,邓,SF,33,206,200,17,52,0.64,1.6,0.714,3.4,0.6176,2,0.318,0.9,59,2.4,51,0.8,88,46,0.68,0.36,57.08,,,,
players,德里克,罗斯,PG,30,191,172,17,52,1.71,3.4,0.854,11.9,0.504,3.1,0.388,0.6,88,2.2,79,4.6,88,71,0.64,0.24,78.75,,,,
players,约什,奥科吉,SG,20,193,194,17,53,1.0,2.2,0.746,4.1,0.439,3,0.267,0.6,54,2.4,53,1.1,88,49,1.08,0.38,67.5,R,,,
players,朱,霍勒迪,SG,28,193,186,18,63,3.1,4.2,0.764,11.8,0.542,5.4,0.317,1.2,78,3.9,82,7.9,87,75,1.6,0.84,95.2,,,,
players,安东尼,戴维斯,C,25,208,230,18,88,1.96,8.6,0.799,16.6,0.542,2.7,0.318,3.2,99,9.3,80,4.1,98,96,1.58,2.46,92.9,,,,
players,所罗门,希尔,SF,27,201,204,18,64,0.66,0.8,0.704,1.7,0.4705,2.0,0.286,0.9,55,2.2,63,1.3,80,51,0.51,0.23,62.3,,,,
players,伊托万,摩尔,SG,30,193,176,18,56,1.12,1.0,0.75,9.9,0.353,3.3,0.416,0.7,54,1.7,67,2.0,88,61,0.74,0.16,78.3,,,,
players,朱利叶斯,兰德尔,PF,24,206,226,18,76,2.64,6.6,0.744,11.5,0.579,2.3,0.344,2.1,83,6.8,72,3.0,88,64,0.7,0.64,82.3,,,,
players,斯坦利,约翰逊,SF,22,201,222,18,57,1.16,1,0.759,3.3,0.515,3.5,0.274,0.6,57,2.9,52,1.2,89,51,0.93,0.24,59.3,,,,
players,埃尔弗里德,佩顿,PG,25,193,168,18,75,2.39,1.5,0.714,7.4,0.459,2,0.34,0.8,53,3.2,63,6.4,76,62,1.09,0.39,77.7,,,,
players,达柳斯,米勒,SF,28,203,204,18,51,0.78,0.8,0.826,1.6,0.4375,5.3,0.372,0.2,53,1.7,41,1.9,81,51,0.64,0.4,72.9,,,,
players,伊恩,克拉克,SG,27,191,158,18,43,0.86,0.4,0.944,2.1,0.476,2.3,0.34,0.2,49,1.1,55,1.1,84,53,0.23,0.09,47.5,,,,
players,贾利尔,奥卡福,C,23,211,250,18,49,0.74,1.5,0.71,5.6,0.593,0,0,1.5,49,3.1,47,0.6,88,68,0.26,0.62,50.8,,,,
players,谢赫,迪亚洛,PF,22,206,200,18,76,0.67,1.2,0.731,3.4,0.634,0,0,1.0,41,3.2,42,0.3,77,60,0.42,0.58,44.8,,,,
players,弗兰克,杰克逊,SG,20,191,186,18,48,0.6,0.9,0.75,3.6,0.5,2.2,0.276,0.4,54,1.4,46,1.0,77,58,0.35,0.02,53.3,R,,,
players,肯里奇,威廉姆斯,PF,24,201,190,18,48,0.7,0.5,0.615,2.4,0.5,2.7,0.319,0.9,46,2.4,44,1.4,76,55,0.44,0.37,59.7,R,,,
players,德安德烈,乔丹,C,30,211,240,19,81,2.14,4,0.688,6.5,0.648,0,0,3.3,81,10.2,69,2,76,66,0.62,1.09,83.5,,,,
players,兰斯,托马斯,PF,30,203,214,19,47,0.5,0.9,0.8,2.4,0.5,1.5,0.238,0.6,51,2.0,46,0.5,82,69,0.57,0.21,55.2,,,,
players,马里奥,海佐尼亚,SF,24,203,198,19,48,1.17,1.6,0.701,4.9,0.4489,2.5,0.277,0.4,52,3.2,73,1.0,88,58,0.94,0.12,59.8,,,,
players,伊曼纽尔,穆迪埃,PG,22,196,182,19,47,2.19,3.1,0.75,9,0.511,3.5,0.317,0.7,61,2.5,63,3.7,82,62,0.81,0.33,75.2,,,,
players,弗朗克,尼利基纳,PG,20,196,172,19,52,1.32,0.7,0.75,4,0.375,2.7,0.291,0.2,53,1.8,62,2.8,78,65,0.73,0.34,64.3,,,,
players,丹尼尔,史密斯,PG,21,191,176,19,47,2.93,3.2,0.642,8,0.4875,3.7,0.331,0.6,78,2.4,78,4.8,83,64,1.7,0.5,80.6,,,,
players,凯文,诺克斯,SF,19,206,196,19,56,1.54,2.8,0.732,7.4,0.391,4.9,0.335,0.8,51,3.6,78,1.0,88,72,0.54,0.31,79.2,R,,,
players,阿朗佐,特里尔,SG,23,196,180,19,52,1.8,3.2,0.845,5.8,0.4655,1.8,0.381,0.5,56,2.6,52,1.9,70,58,0.46,0.26,66.4,R,,,
players,亨利,埃伦森,PF,22,211,222,19,57,0.25,0.5,1,2.7,0.37,2.8,0.455,0,59,4.5,51,1.5,88,51,0.5,0,53.8,,,,
players,诺阿,冯莱,PF,23,206,222,19,48,1.23,2.2,0.722,4.3,0.5116,2.1,0.336,1.7,53,6.2,59,1.9,78,58,0.72,0.79,72.5,,,,
players,丹伊恩,多特森,SG,24,196,200,19,47,0.73,1.3,0.716,4.5,0.466,4.1,0.387,0.6,34,2.9,51,1.4,88,59,0.85,0.13,72.1,,,,
players,卢克,科内特,PF,23,216,226,19,46,0.55,0.9,0.852,1.9,0.368,3.9,0.388,0.5,41,1.9,52,1.1,79,52,0.65,0.55,52.1,,,,
players,米切尔,罗宾逊,C,20,216,202,19,78,0.47,1.8,0.557,4.0,0.687,0,0,2.5,50,2.5,49,0.6,79,71,0.76,2.29,58.3,R,,,
players,拉塞尔,维斯布鲁克,PG,30,191,182,20,72,4.71,6.4,0.656,14.9,0.483,5,0.27,1.5,98,9.8,100,10.9,84,97,2.13,0.44,94.4,HH,,,
players,保罗,乔治,SF,28,206,200,20,89,2.59,7,0.844,11.4,0.4824,9.7,0.398,1.4,98,6.7,96,4.3,98,88,2.29,0.44,96.5,,,,
players,史蒂文,亚当斯,C,25,213,232,20,89,1.66,3.9,0.546,10.4,0.606,0,0,4.5,71,4.9,52,1.7,88,74,1.59,0.76,90.8,,,,
players,丹尼斯,施罗德,PG,25,185,156,20,67,2.26,2.8,0.821,9.7,0.443,4.3,0.344,0.5,70,2.9,86,4.1,73,75,0.91,0.16,78.2,,,,
players,安德烈,罗伯森,SG,27,201,190,20,87,0.77,1,0.316,3.3,0.606,0.9,0.222,1.9,45,2.8,71,1.2,89,42,1.15,0.9,75.4,,,,
players,杰拉米,格兰特,PF,24,206,190,20,76,0.81,2.9,0.698,6.5,0.5846,3.1,0.387,1,51,4.1,73,0.9,88,67,0.9,1.38,87.5,,,,
players,帕特里克,帕特森,PF,29,206,214,20,69,0.37,0.5,0.633,1.4,0.428,2.4,0.338,0.7,56,1.8,42,0.5,85,62,0.28,0.23,50.6,,,,
players,雷蒙德,费尔德,PG,34,185,186,20,67,0.58,0.6,0.909,2.8,0.5,2.1,0.256,0.2,56,1.1,58,1.8,78,55,0.42,0.21,44.5,,,,
players,特伦斯,弗格森,SG,20,201,168,20,65,0.52,0.6,0.633,2,0.55,3.8,0.379,0.5,56,1.3,78,0.8,85,55,0.58,0.23,71,,,,
players,纳伦斯,诺埃尔,C,24,211,206,20,72,0.62,0.9,0.717,3.9,0.571,0,0,1.8,69,2.9,62,0.6,89,71,1.02,1.32,50.2,,,,
players,阿卜杜勒,纳迪尔,SF,25,198,208,20,58,0.37,0.5,0.70,2.0,0.55,1.2,0.353,0.2,46,1.5,50,0.2,72,54,0.24,0.1,40.8,,,,
players,哈米杜,迪亚洛,SG,20,196,180,20,42,0.51,1.3,0.61,3.1,0.516,0.5,0.174,0.8,46,1.3,51,0.4,86,52,0.44,0.22,43.8,R,,,
players,马基夫,莫里斯,PF,29,208,222,20,69,1.3,2.1,0.795,4.9,0.5306,4.2,0.331,1.1,61,3.9,61,1.7,86,65,0.7,0.59,72.5,,,,
players,阿龙,戈登,PF,23,206,200,21,74,2.03,3.6,0.723,8.8,0.5,4.4,0.335,1.6,87,5.6,86,3.6,89,84,0.74,0.69,89.5,,,,
players,埃文,富尼耶,SG,26,201,186,21,68,2.03,2.2,0.795,7.5,0.506,5.8,0.329,0.5,68,2.6,78,3.7,88,72,0.9,0.15,85.8,,,,
players,尼古拉,武切维奇,C,28,213,236,21,64,1.95,2.6,0.766,13.8,0.557,2.9,0.393,2.7,81,9.3,48,3.9,89,81,0.97,1.18,84.8,,,,
players,特伦斯,罗斯,SG,28,201,176,21,74,1.02,1.6,0.869,6.1,0.475,6.5,0.38,0.4,55,3.1,75,1.5,86,54,0.84,0.37,74.6,,,,
players,马克尔,富尔茨,PG,20,193,172,21,68,1.32,1.9,0.568,7.5,0.426,0.7,0.286,1.4,76,2.3,73,3.1,86,70,0.89,0.26,66.8,,,,
players,DJ,奥古斯丁,PG,31,183,166,21,54,1.56,2.8,0.853,4,0.5,3.8,0.441,0.5,62,1.8,55,5,86,56,0.57,0.02,77.7,,,,
players,乔纳森,艾萨克,PF,21,208,190,21,53,1.04,1.9,0.85,4.6,0.5,3.2,0.309,1.2,54,4.1,59,1.0,77,55,0.82,1.36,74.8,,,,
players,默罕默德,班巴,C,20,216,204,21,67,0.91,1.3,0.587,3.7,0.567,1.5,0.300,1.4,68,3.6,62,0.8,88,80,0.28,1.36,53.9,R,,,
players,杰里安,格兰特,PG,26,193,180,21,55,0.92,0.7,0.676,1.9,0.4736,1.8,0.333,0.3,63,1.4,58,2.8,81,56,0.8,0.1,54.6,,,,
players,贾雷尔,马丁,PF,24,208,216,21,77,0.34,0.2,0.875,1.3,0.4615,1.2,0.385,0.2,61,1.4,62,0.4,76,67,0.06,0.22,36.45,,,,
players,肯,伯奇,C,26,206,220,21,49,0.37,1.1,0.813,2.3,0.588,0,0,1.1,58,2.2,42,0.7,82,52,0.37,0.67,43.75,,,,
players,韦斯利,艾旺杜,SF,24,201,186,21,42,0.65,1.6,0.795,2.9,0.413,1.1,0.345,0.5,42,2.0,56,0.9,72,45,0.42,0.38,56,,,,
players,以赛亚,布里斯科,SG,22,191,182,21,50,0.71,0.7,0.542,2.5,0.4,0.8,0.357,0.1,50,1.7,57,2.2,71,48,0.23,0.03,48.3,R,,,
players,乔尔,恩比德,C,24,213,226,22,88,3.59,10.1,0.811,14.6,0.527,4,0.295,2.5,90,11,78,3.5,89,95,0.59,1.97,90.2,HH,,,
players,吉米,巴特勒,SF,29,201,210,22,86,1.41,5.4,0.864,10.7,0.514,3.2,0.357,1.7,88,3.4,89,4,88,84,1.98,0.61,89.8,,,,
players,托拜厄斯,哈里斯,PF,26,206,214,22,72,1.89,3.9,0.868,10.5,0.533,4.9,0.425,0.7,80,7.2,75,2.7,88,74,0.68,0.48,92.1,,,,
players,JJ,雷迪克,SG,34,193,172,22,44,1.4,3.4,0.91,5.7,0.526,7.9,0.39,0.3,52,2.0,69,2.8,38,52,0.44,0.21,85.2,,,,
players,博班,马里亚诺维奇,C,30,221,264,22,80,1.12,2.5,0.743,4,0.65,0.1,0,1.6,58,3,42,0.7,78,55,0.3,0.53,43.9,,,,
players,本,西蒙斯,PG,22,208,218,22,75,3.55,5.6,0.59,12,0.566,0.1,0,2.2,88,6.8,82,7.8,84,88,1.28,0.73,90.63,,,,
players,乔纳森,西蒙斯,SG,29,198,176,22,48,1.3,1.8,0.759,4.7,0.404,1.9,0.242,0.5,52,1.8,47,2.2,62,55,0.49,0.3,61,,,,
players,迈克,斯科特,PF,30,203,214,22,47,0.56,0.4,0.609,1.9,0.368,2.7,0.401,0.5,47,2.7,42,0.9,69,45,0.32,0.15,51.6,,,,
players,阿米尔,约翰逊,C,31,206,218,22,51,0.87,0.8,0.767,2.1,0.619,0.7,0.36,0.7,44,1.8,45,1.2,71,49,0.29,0.21,39.6,,,,
players,乔纳,博尔登,SF,23,208,214,22,37,0.87,0.6,0.444,1.2,0.166,0.6,0.444,0.9,32,2.6,47,0.7,75,42,0.29,0.9,46.5,R,,,
players,詹姆斯,恩尼斯,SF,28,201,190,22,57,0.56,1.3,0.733,2.2,0.636,2.8,0.362,0.8,41,1.9,58,0.7,45,45,0.87,0.36,66.5,,,,
players,TJ,麦康奈尔,PG,26,188,182,22,49,1.25,0.5,0.769,4.9,0.571,0.6,0.353,0.4,59,1.9,59,3.9,78,45,1.25,0.25,62.5,,,,
players,富尔坎,科尔克马兹,SG,21,201,206,22,49,0.54,0.9,0.833,2.1,0.476,3,0.331,0.3,43,1.9,48,1.1,66,42,0.61,0.04,49.6,,,,
players,谢客,米尔顿,SG,22,198,186,22,38,0.23,0.4,0.8,1.6,0.4375,1.9,0.40,0.5,31,1.0,48,1.0,71,41,0.31,0.23,40.2,R,,,
players,德文,布克,SG,22,198,186,23,51,3.96,6.2,0.852,12.4,0.524,6.5,0.326,0.6,86,3.4,86,6.7,64,82,0.85,0.19,92.5,,,,
players,泰勒,约翰逊,PG,26,193,168,23,59,1.38,2.1,0.718,4.7,0.489,4.6,0.357,0.5,48,2.4,81,2.7,74,71,0.98,0.48,75,,,,
players,TJ,沃伦,SF,25,203,204,23,75,1.21,2.9,0.815,10,0.51,4.2,0.428,0.7,50,3.3,82,1.5,88,74,1.19,0.67,85.8,,,,
players,德安德烈,艾顿,C,20,216,236,23,78,1.77,2.6,0.757,12.1,0.595,0.1,0,3.1,79,7.3,72,1.9,94,82,0.82,0.89,84.4,R,,,
players,约什,杰克逊,SF,22,203,186,23,67,2.31,2.6,0.671,7.7,0.454,2.6,0.29,0.9,68,3.3,72,2.3,83,78,1.02,0.63,70,,,,
players,德拉甘,本德尔,PF,21,216,204,23,54,0.69,1,0.654,1.5,0.666,1.9,0.163,0.6,34,2.3,48,0.8,63,35,0.19,0.12,46.3,,,,
players,米卡尔,布里奇斯,SF,22,201,190,23,64,0.85,1.2,0.779,2.8,0.5357,3.9,0.346,0.7,51,2.4,62,2,88,71,1.56,0.48,78.3,R,,,
players,特洛伊,丹尼尔斯,SG,27,193,186,23,42,0.61,0.5,0.765,1.3,0.538,3.5,0.394,0.2,49,0.9,53,0.4,73,45,0.55,0.06,47.3,,,,
players,凯利,乌布雷,SF,23,201,186,23,71,1.35,3.4,0.777,6.7,0.522,4.9,0.317,0.9,63,3.6,72,1.1,75,55,1.08,0.83,77,,,,
players,贾马尔,克劳福德,SG,38,196,176,23,39,1.49,1.5,0.827,3.3,0.454,2.8,0.296,0.1,72,1.1,57,3.3,88,35,0.47,0.2,56.7,EX,,,
players,里乔恩,霍姆斯,PF,25,208,222,23,77,0.75,2.3,0.719,4.9,0.648,0,0,1.6,52,2.9,52,0.8,79,65,0.55,1.14,54.4,,,,
players,埃利,奥科博,PG,21,188,164,23,51,1.33,0.8,0.829,3.2,0.4375,2.5,0.274,0.2,40,1.7,60,2.6,79,55,0.6,0.12,58.5,R,,,
players,丹东尼,梅尔顿,PG,20,193,172,23,55,1.57,0.5,0.833,3.4,0.4117,2.2,0.308,0.5,42,2.1,66,3.3,78,55,1.46,0.49,61.3,R,,,
players,达米恩,利拉德,PG,28,191,176,24,80,2.73,6.5,0.911,11.4,0.5,7.8,0.366,0.8,87,3.8,89,6.4,90,88,1.17,0.47,93.5,HH,,,
players,CJ,麦科勒姆,SG,27,191,172,24,81,1.58,2.8,0.826,11.7,0.504,6.3,0.362,0.9,78,3.2,81,2.8,83,81,0.82,0.37,90.8,,,,
players,埃文,特纳,SG,30,201,200,24,54,1.65,1.5,0.706,6,0.5,0.8,0.152,0.6,50,4,54,3.9,77,65,0.49,0.25,69,,,,
players,优素福,努尔基奇,C,24,213,254,24,70,2.25,5,0.763,10.9,0.5229,0.4,0.115,3.3,61,6.8,49,3.2,82,71,0.98,1.5,76.8,,,,
players,迈耶斯,伦纳德,PF,27,216,232,24,56,0.71,0.8,0.818,2.2,0.59,1.9,0.47,0.8,47,3.1,58,1.2,85,55,0.25,0.17,50.2,GL,,,
players,莫里斯,哈克里斯,SF,25,206,200,24,59,0.73,0.9,0.667,3.8,0.578,2,0.288,1.2,53,3,59,0.9,78,62,1.02,0.83,66,,,,
players,艾尔,阿米奴,PF,28,206,200,24,86,0.79,2.2,0.85,3.6,0.5,3.5,0.364,1.5,53,6.4,72,1.3,85,55,0.89,0.38,80,,,,
players,扎克,科林斯,PF,21,213,208,24,57,0.98,1.7,0.776,3.6,0.527,1.5,0.337,1.4,43,2.8,59,0.9,82,63,0.37,0.82,57,,,,
players,罗德尼,胡德,SG,26,203,186,24,48,0.72,2.2,0.897,6.2,0.467,3.3,0.356,0.4,53,2.0,78,1.8,55,75,0.83,0.13,75,,,,
players,赛斯,库里,SG,28,188,168,24,44,0.73,0.3,0.895,2.4,0.4166,2.8,0.462,0.3,48,1,69,1,73,57,0.38,0.15,56,,,,
players,安芬尼,西蒙斯,SG,19,191,168,24,39,0.58,0.3,0.25,1.3,0.4615,0.8,0,0,34,0.6,47,0.3,83,56,0,0,30,R,,,
players,斯卡尔,拉比西埃,PF,22,211,204,24,49,0.53,0.7,0.545,1.3,0.461,0.7,0.364,0.3,38,1.4,47,0.4,84,53,0.13,0.27,36.3,,,,
players,杰克,莱曼,SF,24,206,190,24,49,0.62,0.8,0.725,3.4,0.647,2.6,0.369,0.9,46,2.2,50,0.7,86,62,0.46,0.46,58.3,,,,
players,哈里斯,巴恩斯,SF,26,203,204,25,72,1.36,3.8,0.832,8,0.425,6.2,0.378,0.8,76,3.8,74,1.4,87,72,0.75,0.21,88.3,,,,
players,亚历克,伯克斯,SG,27,198,194,25,42,1.11,2.5,0.823,5.3,0.4151,3.5,0.378,0.5,48,3.4,66,2.1,84,54,0.58,0.35,68.3,,,,
players,波格丹,波格丹诺维奇,SG,26,198,186,25,54,1.78,2.5,0.815,7.5,0.48,5.5,0.337,0.5,62,3.3,69,4.1,82,67,1.12,0.22,78.9,,,,
players,科斯塔,库弗斯,C,30,213,240,25,78,0.62,0.5,0.353,3.4,0.486,0,0,1.2,46,3.1,38,0.8,84,45,0.41,0.41,44.8,,,,
players,马文,巴格利,PF,19,211,214,25,74,1.62,4.2,0.697,9.1,0.549,1.3,0.258,2.5,79,4.7,74,1,85,85,0.57,1,71.6,R,,,
players,内马尼亚,别利察,SF,30,208,204,25,46,1.25,1.2,0.765,4.3,0.5348,3.4,0.423,1.6,50,4.1,58,1.9,92,53,0.74,0.79,68.1,,,,
players,达龙,福克斯,PG,21,191,158,25,72,2.95,5.2,0.728,10.7,0.4766,2.9,0.369,0.5,84,3.1,93,7.2,89,85,1.67,0.55,86,,,,
players,威利,斯坦,C,25,213,218,25,73,1.18,3.4,0.541,9.8,0.538,0.01,0.5,2.4,46,6,44,2.5,88,76,1.25,0.66,78,,,,
players,巴迪,希尔德,SG,26,193,194,25,73,1.95,2.3,0.86,8.8,0.4886,7.6,0.444,1.4,88,3.9,87,2.3,88,85,0.59,0.38,86.3,,,,
players,约吉,费雷尔,PG,25,183,164,25,42,0.45,0.9,0.872,2.9,0.4827,2.1,0.368,0.2,50,1.4,81,2,86,50,0.53,0.08,51,,,,
players,哈里,贾尔斯,PF,20,208,218,25,52,1.21,1.5,0.625,5.4,0.5185,0.1,0,1.0,53,2.6,46,1.3,74,52,0.54,0.33,47.5,R,,,
players,弗兰克,梅森,PG,24,183,172,25,40,0.88,1.6,0.679,2.7,0.5185,1.5,0.22,0.1,36,1.0,63,2.4,86,47,0.47,0.12,44.2,,,,
players,科里,布鲁尔,SF,32,206,168,25,52,0.9,2,0.7,4.2,0.476,2.5,0.32,0.4,69,1.5,87,1.4,100,64,1.2,0.3,60,,,,
players,德玛尔,德罗赞,SG,29,201,200,26,84,2.6,5.8,0.823,17,0.482,0.7,0.171,0.7,92,5.5,89,6.1,86,84,1.03,0.48,93.3,,,,
players,拉马库斯,阿尔德里奇,PF,32,211,236,26,74,1.84,5.2,0.847,15.7,0.5159,0.4,0.2,3.1,86,5.8,59,2.5,89,85,0.5,1.26,87.9,,,,
players,保罗,加索尔,PF,38,213,216,26,42,0.52,1.4,0.711,2.9,0.448,0.4,0.5,0.8,78,3.9,41,1.9,96,43,0.19,0.52,45.4,IH,,,
players,帕蒂,米尔斯,PG,30,183,168,26,63,1.19,1.4,0.86,3.4,0.47,4.7,0.403,0.3,48,2.0,81,3,82,68,0.67,0.14,70,,,,
players,鲁迪,盖伊,SF,32,203,208,26,69,1.63,2.1,0.862,8.3,0.542,2.6,0.422,0.9,85,5.5,83,2.7,88,72,0.83,0.58,76,,,,
players,戴维斯,贝尔坦斯,PF,26,208,190,26,41,0.6,0.8,0.886,1.5,0.466,4.2,0.469,0.4,48,3.1,40,1.2,71,52,0.51,0.49,65,,,,
players,马科,贝里内利,SG,32,196,190,26,44,0.92,1.7,0.915,3.7,0.459,5.1,0.388,0.2,46,2.2,63,1.8,89,52,0.46,0.13,68,,,,
players,布林,福布斯,SG,25,191,172,26,42,1.06,1.1,0.91,4.8,0.479,5.2,0.406,0.2,48,2.6,66,2.2,72,64,0.59,0.05,78.8,,,,
players,雅各布,珀尔特尔,C,23,213,208,26,72,0.71,1.3,0.554,3.7,0.634,0,0,2.2,46,2.9,44,1.2,88,75,0.25,0.71,51.6,,,,
players,丹特,坎宁安,PF,31,203,208,26,48,0.38,0.3,0.813,1.5,0.533,1.1,0.484,0.8,45,2.4,34,0.9,79,53,0.43,0.23,52.3,,,,
players,朗尼,沃克,PG,20,196,186,26,41,0.67,0.7,1,2.5,0.16,1.0,0.333,0,30,1.7,57,0.3,88,48,0.5,0.17,40,R,,,
players,昆西,庞特赛德,SF,30,201,204,26,52,0.22,0.8,0.789,0.8,0.625,0.4,0.333,0.2,41,0.8,41,0.5,72,41,0.2,0.02,32,,,,
players,德里克,怀特,PG,24,196,182,27,59,1.48,1.9,0.764,5.6,0.5535,2,0.347,0.5,53,3,64,3.6,79,52,1.04,0.54,72.7,,,,
players,奇梅齐耶,梅图,PF,21,208,204,27,47,0.54,0.6,0.765,1.8,0.333,0.1,0,0.3,44,0.9,37,0.5,72,53,0.21,0.07,30,R,,,
players,凯尔,洛瑞,PG,32,183,186,27,67,2.82,3.2,0.836,4.6,0.521,6.8,0.339,0.6,86,3.8,89,9.2,88,78,1.44,0.52,91.6,HH,,,
players,马克,加索尔,C,34,216,232,27,86,2.15,3.6,0.742,8.6,0.488,3.8,0.351,1.1,88,7.2,51,4.6,89,78,1.10,1.15,87.5,IH,,,
players,塞尔吉,伊巴卡,PF,29,208,214,27,73,1.69,2.6,0.775,10.1,0.5841,2.4,0.27,2.1,74,5.8,71,1.5,88,67,0.47,1.26,78.6,IH,,,
players,科怀,伦纳德,SF,27,201,208,27,89,2.04,7.6,0.863,13.9,0.5395,4.9,0.356,1.4,91,6.2,90,3.3,84,89,1.84,0.44,92.1,,,,
players,丹尼,格林,SG,31,198,196,27,83,0.9,0.5,0.903,2.7,0.481,5.3,0.429,0.8,76,3.3,75,1.4,88,68,0.88,0.72,79,,,,
players,诺曼,鲍威尔,SG,25,193,196,27,46,0.88,1.3,0.811,3.7,0.54,2.8,0.36,0.2,52,1.7,67,1.6,82,57,0.65,0.2,58.5,,,,
players,弗雷德,范弗里特,PG,25,183,176,27,53,1.27,1.8,0.833,3.7,0.54,4.5,0.366,0.4,54,2.3,60,4.6,88,63,0.88,0.24,75.8,,,,
players,OG,阿奴诺比,SF,21,203,214,27,53,0.71,0.8,0.452,3.1,0.548,3.2,0.348,0.8,31,2.3,68,0.7,72,51,0.65,0.24,62.3,,,,
players,帕斯卡尔,西亚卡姆,PF,24,206,208,27,66,1.75,3.7,0.788,8.9,0.5955,2.4,0.369,1.6,77,5.4,68,2.9,81,74,0.98,0.69,85.8,,,,
players,帕特里克,麦考,SG,23,201,168,27,38,0.62,0.6,1,1.5,0.466,1.1,0.176,0.4,48,1.6,49,0.9,57,45,0.75,0.06,46.6,,,,
players,林,书豪,PG,30,191,182,27,68,1.87,3.3,0.844,5.1,0.529,2.6,0.31,0.3,87,2.1,73,3.6,88,68,0.73,0.15,61.3,,,,
players,鲁迪,戈贝尔,C,26,216,222,28,89,1.61,6.3,0.661,8.6,0.654,0,0,3.8,79,9.1,71,2.2,71,72,0.87,2.23,86.3,IH,,,
players,德里克,费沃斯,PF,27,208,240,28,79,1.07,3,0.672,6.7,0.641,1.1,0.209,2.6,68,4.7,76,1.1,84,79,0.73,1.38,68.5,,,,
players,里基,卢比奥,PG,28,193,172,28,72,2.92,3.1,0.848,7.2,0.458,4.1,0.324,0.5,66,3.2,79,6,88,69,1.32,0.17,80,IH,,,
players,乔,英格尔斯,SF,31,203,204,28,59,2.2,1.7,0.714,4,0.55,5.7,0.375,0.4,45,3.5,71,5.1,89,71,1.33,0.26,85.8,,,,
players,丹特,艾克萨姆,PG,23,198,172,28,30,1.18,2.2,0.791,4.5,0.466,1.5,0.305,0.4,50,1.3,60,2.7,80,56,0.36,0.13,54,,,,
players,凯尔,科沃尔,SG,37,201,192,28,41,0.91,1.1,0.836,1.9,0.526,4.7,0.414,0.1,84,2.1,62,1,98,48,0.29,0.2,58.3,,,,
players,杰,克劳德,PF,28,198,214,28,67,1.12,2.7,0.696,3.5,0.514,6.6,0.337,0.8,46,4,68,1.6,83,45,0.77,0.38,77.5,,,,
players,萨博,赛福洛沙,SF,34,201,200,28,70,0.55,0.5,0.571,1.1,0.545,1.1,0.50,0.2,49,2.4,49,0.4,82,35,0.84,0.06,42,,,,
players,艾派,尤度,PF,31,208,222,28,62,0.23,0.5,0.625,1.1,0.718,0,0,0.3,49,0.8,52,0.4,76,55,0.11,0.49,32,,,,
players,多诺万,米切尔,SG,22,191,182,28,65,2.81,5,0.797,13,0.4769,6.8,0.33,0.7,89,3.4,88,4.1,83,85,1.42,0.37,90,SP,,,
players,劳尔,内托,PG,26,185,162,28,31,0.88,0.8,0.85,2.3,0.608,1.5,0.324,0.1,48,1.5,47,2.3,70,45,0.36,0.04,45,,,,
players,格雷森,阿伦,SG,23,196,186,28,59,0.55,1.3,0.711,1.4,0.357,2.4,0.271,0,48,0.3,55,0.6,50,55,0.14,0.1,40,R,,,
players,乔治,尼昂,SF,25,203,208,28,49,0.31,0.3,0.769,0.8,0.5,1.7,0.408,0.2,48,1.1,39,0.5,82,35,0.17,0.07,35,,,,
players,罗伊斯,奥尼尔,SF,25,198,204,28,51,0.84,0.6,0.75,2.1,0.5238,1.9,0.407,0.3,48,3.1,48,1.4,72,48,0.69,0.31,60,,,,
players,布拉德利,比尔,SG,25,196,188,29,82,2.9,5.2,0.828,12.4,0.556,7.3,0.35,1.1,87,3.9,87,5.4,81,85,1.41,0.77,98,HH,,,
players,贾巴里,帕克,SF,23,203,226,29,72,2.28,2.7,0.714,8.6,0.523,2.9,0.313,1.1,51,5.3,79,2.4,84,71,0.7,0.41,75.6,,,,
players,约翰,沃尔,PG,28,193,190,29,74,3.78,5.5,0.697,11.9,0.513,5.3,0.302,0.5,89,3.2,99,8.7,55,84,1.53,0.91,91.8,HH,,,
players,伊安,马辛米,C,32,211,238,29,73,0.65,1.9,0.683,2.3,0.565,0.4,0.083,1.3,50,2.2,35,0.8,75,35,0.77,0.48,50,,,,
players,特雷沃,阿里扎,SF,33,203,196,29,82,1.61,2.4,0.8,4.5,0.488,6.5,0.332,0.7,67,4.9,56,3.9,85,59,1.49,0.26,93.75,,,,
players,韦斯利,约翰逊,SF,31,201,196,29,59,0.52,0.5,0.625,1.4,0.461,2.1,0.348,0.4,42,1.7,78,0.7,76,55,0.42,0.33,51,,,,
players,德怀特,霍华德,C,33,211,240,29,79,1.78,5.3,0.604,7.7,0.623,0,0,2.7,75,6.6,58,0.4,67,74,0.78,0.44,73.3,,,,
players,托马什,萨托兰斯基,SG,27,201,190,29,52,1.32,1.6,0.792,4.3,0.5116,1.8,0.44,0.9,41,2.2,59,4.4,85,57,1.03,0.17,60,,,,
players,萨姆,德克尔,SF,24,206,208,29,39,0.47,0.8,0.6,4.3,0.558,1.2,0.31,1.1,40,2.2,68,0.9,75,62,0.86,0.19,54.6,,,,
players,特洛伊,贝勒,SF,19,201,196,29,42,0.29,0.7,0.667,1.8,0.388,0.6,0.263,0.3,41,1.1,41,1,78,67,0.26,0.03,35,R,,,
players,博比,波蒂斯,PF,24,211,224,29,68,1.38,2,0.763,8.9,0.483,3.5,0.392,2,51,5.5,68,1.4,71,68,0.72,0.34,71.8,,,,
players,杰夫,格林,SF,32,206,214,29,78,1.32,2.6,0.902,4.9,0.571,4.2,0.364,0.9,45,3.5,62,2,87,52,0.49,0.53,77.9,,,,
players,托马斯,布莱恩特,C,21,208,224,29,72,0.76,1.7,0.795,5.3,0.698,1.1,0.382,1.5,78,4.4,59,1.3,88,68,0.35,0.84,60,,,,
players,沙松,兰德尔,PG,26,188,168,29,41,1.13,1.3,0.65,2.3,0.4347,2.2,0.435,0.2,25,1.1,57,2.2,78,48,0.48,0.03,52.3,,,,
players,卡梅隆,安东尼,SF,35,203,218,-1,51,0.8,2.2,0.682,5.7,0.491,6.4,0.328,0.9,78,4.5,72,0.5,64,67,0.4,0.7,81.3,,,,
players,尼克,杨,SG,34,201,190,-1,59,0.5,0.8,0.862,2,0.5,4.1,0.377,0.2,98,1.3,74,0.5,98,62,0.47,0.09,56.3,,,,
players,易,建联,PF,32,213,230,-1,51,1.65,2.22,0.798,4.2,0.403,4.8,0.333,1.76,88,3.92,56,0.7,86,64,0.43,0.51,61.6,IH,,,
players,托尼,阿伦,SG,37,193,194,-1,86,0.86,1,0.524,3.6,0.5,0.5,0.333,0.9,71,1.2,76,0.4,88,67,0.5,0.14,60,,,,
players,欧米尔,阿西克,C,33,213,232,-1,67,0.5,0.7,0.308,1.2,0.409,0,0,0.5,34,2.1,31,0.2,78,34,0.11,0.22,45,,,,
players,雷蒙,塞申斯,PG,33,191,172,-1,42,1.07,2,0.772,3.3,0.363,0.9,0.308,0.2,42,1.1,69,2.8,78,57,0.5,0.07,49,,,,
players,安德烈,英格拉姆,SG,34,191,166,-1,42,1.5,1.5,1,4,0.375,4.5,0.556,0.5,67,2.5,71,3.5,98,54,1.5,1.5,86.6,,,,
players,约瑟夫,杨,PG,27,188,164,-1,37,0.49,0.5,0.759,2.3,0.434,1.2,0.379,0.2,23,1,54,0.7,88,43,0.26,0.02,42,,,,
players,泰勒,格里芬,PF,33,201,216,-1,42,1.72,3.6,0.7,6.1,0.531,0.4,0.357,2.3,42,3.6,56,1.3,88,69,1.31,1,61.6,,,,
players,本,本蒂尔,PF,24,206,230,-1,41,1.55,2.88,0.76,4.5,0.455,1.6,0.324,1.5,41,2.28,34,0.54,88,42,0.342,0.42,62,,,,
players,凯,费尔德,PG,24,175,160,-1,37,1,0.8,0.917,3.2,0.34375,1.2,0.211,0.2,42,0.9,67,1.2,86,53,0.19,0.06,61,,,,
players,马塞洛,胡尔塔斯,PG,36,191,160,-1,43,1.3,0.6,0.783,2.8,0.464,1.1,0.25,0.3,56,1.2,72,2.3,89,47,0.47,0.12,50,SP,,,
players,周,琦,C,23,216,190,-1,34,0.53,0.6,0.667,0.7,0.428,1,0.105,0.3,87,0.8,49,0.1,87,42,0.11,0.74,45,IH,,,
players,丹纽尔,豪斯,SG,25,201,176,-1,41,0.92,2.2,0.818,2.2,0.545,4,0.39,0.8,56,2.8,73,1.0,87,69,0.56,0.4,72,,,,
players,布克,比诺德,SG,25,196,188,-1,82,2.9,1.2,0.828,4.4,0.556,2.3,0.35,1.1,87,2.9,87,2.4,81,65,1.41,0.77,78,,,,
players,罗伊斯,戈登,SF,37,203,226,-1,52,2.28,2.7,0.714,3.6,0.523,1.9,0.313,1.1,51,2.3,79,2.4,84,51,0.7,0.41,75.6,,,,
players,威立雅,博扬,PG,31,193,190,-1,74,3.78,3.5,0.697,4.9,0.513,2.3,0.302,0.5,89,1.2,69,3.7,55,54,0.3,0.61,51.8,,,,
players,罗斯,曼海姆,C,32,211,238,-1,63,0.65,1.9,0.683,2.3,0.565,0.4,0.083,1.3,50,2.2,35,0.8,65,35,0.77,0.48,50,,,,
players,尼克,多齐尔,SF,38,203,196,-1,42,1.61,1.4,0.8,1.5,0.488,1.5,0.332,0.7,67,1.9,56,1.9,85,59,0.49,0.26,75,,,,
players,韦斯利,比利,SG,31,201,196,-1,59,0.52,0.5,0.625,1.4,0.461,2.1,0.348,0.4,42,1.7,78,0.7,76,55,0.42,0.33,51,,,,
players,怀特,希尔,C,33,211,240,-1,59,1.78,2.3,0.604,4.7,0.623,0,0,1.7,65,3.6,58,0.4,67,54,0.48,0.44,73,,,,
players,拉夫,索尔,PG,27,201,190,-1,52,1.32,1.6,0.792,2.3,0.5116,0.8,0.44,0.9,41,1.2,59,3.4,85,57,0.23,0.17,52,,,,
players,索恩,戴卡,PF,29,206,208,-1,39,0.47,0.8,0.6,2.3,0.558,0.4,0.31,0.1,40,1.2,68,0.9,75,62,0.36,0.19,54,,,,
players,特洛伊,伯克,SF,38,203,196,-1,42,1.61,1.4,0.8,1.5,0.488,1.5,0.332,0.7,67,1.9,56,1.9,85,59,0.49,0.26,75,,,,
players,达柳斯,帕克,SG,31,201,196,-1,59,0.52,0.5,0.625,1.4,0.461,2.1,0.348,0.4,42,1.7,78,0.7,76,55,0.42,0.33,51,,,,
players,威尔森,里德,C,33,211,240,-1,59,1.78,2.3,0.604,4.7,0.623,0,0,1.7,65,3.6,58,0.4,67,54,0.48,0.44,73,,,,
players,萨姆,布克,PG,27,201,190,-1,52,1.32,1.6,0.792,2.3,0.5116,0.8,0.44,0.9,41,1.2,59,3.4,85,57,0.23,0.17,52,,,,
players,丹尼斯,约翰逊,PF,29,206,208,-1,39,0.47,0.8,0.6,2.3,0.558,0.4,0.31,0.1,40,1.2,68,0.9,75,62,0.36,0.19,54,,,,
players,汤姆,维西,SF,38,203,196,-1,42,1.61,1.4,0.8,1.5,0.488,1.5,0.332,0.7,67,1.9,56,1.9,85,59,0.49,0.26,75,,,,
players,布兰登,罗斯,SG,31,201,196,-1,59,0.52,0.5,0.625,1.4,0.461,2.1,0.348,0.4,42,1.7,78,0.7,76,55,0.42,0.33,51,,,,
players,德特,格林,C,33,211,240,-1,59,1.78,2.3,0.604,4.7,0.623,0,0,1.7,65,3.6,58,0.4,67,54,0.48,0.44,73,,,,
players,帕拉斯,兰斯,PG,27,201,190,-1,52,1.32,1.6,0.792,2.3,0.5116,0.8,0.44,0.9,41,1.2,59,3.4,85,57,0.23,0.17,52,,,,
players,帕克,安德森,PF,29,206,208,-1,39,0.47,0.8,0.6,2.3,0.558,0.4,0.31,0.1,40,1.2,68,0.9,75,62,0.36,0.19,54,,,,
players,杰拉德,伦纳德,SF,38,203,196,-1,42,1.61,1.4,0.8,1.5,0.488,1.5,0.332,0.7,67,1.9,56,1.9,85,59,0.49,0.26,75,,,,
players,詹姆斯,内托,SG,31,201,196,-1,59,0.52,0.5,0.625,1.4,0.461,2.1,0.348,0.4,42,1.7,78,0.7,76,55,0.42,0.33,51,,,,
players,德玛尔,兰斯,C,33,211,240,-1,59,1.78,2.3,0.604,4.7,0.623,0,0,1.7,65,3.6,58,0.4,67,54,0.48,0.44,73,,,,
players,索玛,凯西,PG,27,201,190,-1,52,1.32,1.6,0.792,2.3,0.5116,0.8,0.44,0.9,41,1.2,59,3.4,85,57,0.23,0.17,52,,,,
players,里勒,史密斯,PF,29,206,208,-1,39,0.47,0.8,0.6,2.3,0.558,0.4,0.31,0.1,40,1.2,68,0.9,75,62,0.36,0.19,54,,,,
players,多诺万,兰斯,C,33,211,240,-1,59,1.78,2.3,0.604,4.7,0.623,0,0,1.7,65,3.6,58,0.4,67,54,0.48,0.44,73,,,,
players,莱尔斯,普莱斯,PG,27,201,190,-1,52,1.32,1.6,0.792,2.3,0.5116,0.8,0.44,0.9,41,1.2,59,3.4,85,57,0.23,0.17,52,,,,
players,凯斯,杨,PF,29,206,208,-1,39,0.47,0.8,0.6,2.3,0.558,0.4,0.31,0.1,40,1.2,68,0.9,75,62,0.36,0.19,54,,,,
,,,,,,,,,,,,,,,,,,,,,,,,,,,,,
// Rookies ,,,,,,,,,,,,,,,,,,,,,,,,,,,,,
//选秀,//姓,//名,//位置,//年龄,//高度,//宽度,//球队,//防御,//失误,//罚篮出手,//罚中率,//2分出手,//2分中率,//3分出手,//3分中率,//进攻篮板,//名望,//防守篮板,//快攻,//助攻,//个性,//潜力,//抢断,//盖帽,//体力,//特性,//城市,//省份,
// 索引,//仅一个,//全部,//C PF SF SG PG,//19-40,//170-222,//160-290,//0-29,//24-99,//0.3-4,//0.3-9,//0.3-0.9,//2-17,//0.3-0.7,//0.1-9,//0.1-0.5,//0.2-5,//1-100,//1-11,//10-100,//0.2-11,//15-98,//35-85,//0.1-2,//0-3,//32-100,//CG EX HF HH IH PT R SP,//城市,//省份,
Rookies,流,水了,SF,18,203,210,-3,72,3.46,5.8,0.8,11,0.5,3.8,0.334,1.2,1,4.3,71,5.1,99,85,1.21,0.62,85,China,,,","
Rookies,进攻,万花筒,SG,18,198,180,-3,61,2.45,5.8,0.85,8.5,0.491,6.7,0.323,0.2,1,1.3,82,2.3,99,85,1.05,0.1,85,China,,,","
Rookies,国,宝,SF,18,203,218,-3,57,2.66,6.9,0.811,12.1,0.449,3.7,0.347,1.2,1,4,78,2.1,99,85,0.84,0.5,85,China,,,","
Rookies,缱,绻,SG,18,201,200,-3,71,2.48,2.1,0.85,11.3,0.443,6.8,0.384,0.7,1,2.9,74,5.1,99,85,0.84,0.61,85,China,,,","
Rookies,钱,多多,PF,18,213,220,-3,67,1.65,4.3,0.88,12.1,0.474,3.8,0.372,1.2,1,5.8,61,2.1,99,85,0.67,1.21,85,China,,,","
Rookies,莫,哭,C,18,206,218,-3,85,0.98,3,0.444,5.3,0.471,0,0,3.9,1,8.8,62,1.1,99,85,1.03,1.48,85,China,,,","
Rookies,星,期四,PG,18,201,200,-3,71,3.24,2.1,0.85,8.3,0.443,7.3,0.38,0.5,1,2.3,81,6.1,99,85,0.91,0.37,85,China,,,","
Rookies,琉,夏,PG,18,193,160,-3,64,3.84,1.1,0.85,10.7,0.461,7.7,0.383,0.2,1,2.3,86,7.3,99,85,1.21,0.21,85,China,,,","
Rookies,顾,方清,SF,18,203,204,-3,71,2.16,5.2,0.78,13.7,0.435,3.4,0.338,1.3,1,4.4,78,4.7,99,85,1.08,0.79,85,China,,,","
Rookies,全能,战士,C,18,213,226,-3,64,3.1,4.2,0.82,12.8,0.512,3.1,0.311,2.6,1,5.8,64,5.1,100,85,0.84,0.61,85,China,,,","
Rookies,勿,忘我,PG,18,185,164,-3,72,3.21,4.3,0.70,12.4,0.452,2.2,0.3,0.7,1,1.4,81,8.4,100,85,1.21,0.1,85,China,,,","
Rookies,南,风,SF,18,206,200,-3,71,2.51,4.7,0.845,9.2,0.434,6.2,0.38,0.9,1,4.1,75,2.9,100,85,1.55,0.4,85,China,,,","
Rookies,冰,箱,PF,18,208,190,-3,75,1.95,4.7,0.798,12.7,0.554,0.2,0.261,2.6,1,6.1,61,1.7,100,85,0.32,1.56,85,China,,,","
Rookies,宁,汝斌,SF,18,203,210,-3,72,3.46,5.8,0.71,13,0.5,2.3,0.334,1.6,1,3.5,71,5.6,99,85,0.91,0.71,85,China,,,","
Rookies,天涯,若比邻,SG,18,203,204,-3,71,2.37,5.8,0.78,14.1,0.431,3.4,0.331,0.8,1,2.3,78,2.3,99,85,0.72,0.68,85,China,,,","
Rookies,zero,零,C,18,211,240,-3,85,1.37,5.9,0.463,11.7,0.561,0,0,2.1,1,6.1,51,0.8,99,85,0.35,1.37,85,China,,,","
Rookies,天,选之子,PG,18,193,160,-3,64,3.84,3.2,0.85,7.7,0.482,8.2,0.383,0.2,1,2.1,86,6.8,99,85,0.81,0.29,85,China,,,","
Rookies,J.R,史密斯,PG,18,198,170,-3,82,3.71,1.1,0.67,3.7,0.471,3.2,0.342,0.8,1,2.3,81,7.9,100,85,1.24,0.64,85,China,,,","
Rookies,逗,逗吧,PF,18,203,224,-3,71,1.8,4.2,0.7,8.5,0.491,2.8,0.333,2.1,1,5.1,71,2.1,100,85,0.96,0.9,85,China,,,","
Rookies,鑫,仔,SG,18,196,186,-3,68,2.08,3.8,0.85,8.4,0.452,7.3,0.4,0.7,1,2.8,74,2.7,100,85,0.91,0.1,85,China,,,","
Rookies,隆,霸霸,SG,18,193,200,-3,67,2.87,7.1,0.731,13.5,0.47,1.5,0.281,1.1,1,3.2,89,4.7,100,85,1.21,0.72,85,China,,,","
Rookies,布朗尼,詹姆斯,SG,18,201,196,-3,68,1.7,2.2,0.80,9,0.459,7.2,0.418,0.2,1,2.4,78,2.1,100,85,0.84,0.47,85,China,,,","
Rookies,谨,铭,SG,18,198,192,-3,69,2.9,7.4,0.8,12.4,0.447,4.1,0.329,1,1,3.4,84,4.2,100,85,0.92,0.43,85,China,,,","
Rookies,未,暗,SG,18,201,196,-3,68,1.7,2.2,0.80,9,0.459,7.2,0.418,0.2,1,2.4,78,2.1,100,85,0.84,0.47,85,China,,,","
Rookies,圣,殇,SF,18,203,200,-3,61,1.7,2.2,0.80,7,0.459,8.2,0.418,0.2,1,2.4,78,2.1,100,85,0.54,0.23,85,China,,,","
Rookies,包,文杰,C,18,216,294,-3,71,2.7,9.3,0.5,14,0.548,0,0.045,3,1,6.8,62,2.1,100,85,0.5,2.1,85,China,,,","
Rookies,鸽,子,PG,18,185,180,-3,55,2,1.4,0.8,5,0.398,4.8,0.327,0.2,1,2,87,5.9,100,85,1.1,0.08,85,China,,,","
Rookies,卤,蛋,PF,18,201,200,-3,85,1.6,2,0.58,5.4,0.521,0.4,0.231,4.2,1,8.1,60,1.8,100,85,0.54,0.49,85,China,,,","
Rookies,迈克,达柳斯,SF,19,202.9,230,-3,61,2.47,2.58,0.687,8.03,0.474,4.93,0.359,1.63,42,4.81,72,1.94,49,46,0.57,1.11,71,USA,Michigan,Michigan State,","
Rookies,马克,贝勒斯,C,19,216,225,-3,66,1.3,3.08,0.546,11.16,0.553,0.2,0.269,3.57,6.5,6.47,44,1.13,61,33,0.73,1.12,60,USA,Louisiana,Chalmette,","
Rookies,罗伊斯,华盛顿,PF,19,203.2,235,-3,74,1.87,4.16,0.586,9.83,0.519,0.6,0.283,1.87,13.5,5.39,46,2.32,80,45,1.02,1.01,64,USA,Kentucky,Kentucky,","
Rookies,基利安,戴维斯,PF,20,208.3,215,-3,62,1.77,1.66,0.776,7.83,0.485,1.4,0.364,1.57,37.5,5.39,46,1.68,81,40,1.37,0.56,68,USA,Washington,Gonzaga,","
Rookies,布鲁斯,纳什,SG,20,195.6,200,-3,56,1.99,2.66,0.736,5.83,0.471,2.13,0.321,0.97,31,3.11,70,3.15,71,46,1.26,0.24,72,USA,Florida,Miami,","
Rookies,特洛伊,泰勒,SG,19,200.7,210,-3,60,2.47,3.75,0.806,9,0.457,2.13,0.24,1.27,19.5,4.19,72,2.96,55,44,1.31,0.13,81,USA,Oregon,Oregon,","
Rookies,米卡尔,布尔什维克,SF,21,200.7,200,-3,76,1.3,1.08,0.876,4.33,0.485,2.06,0.373,1.07,18,2.51,54,1.77,80,47,1.34,0.59,74,USA,Pennsylvania,Villanova,","
Rookies,特雷沃,巴恩斯,PG,19,188.5,190,-3,53,2.42,2.5,0.626,5.66,0.444,0.8,0.207,0.77,21,1.91,82,4.25,82,54,1.07,0.03,93,USA,North Carolina,Duke,","
Rookies,阿利兹,贝尔坦斯,PF,22,205.8,205,-3,71,2.27,3,0.666,6.5,0.464,2.4,0.359,1.67,25.5,5.87,50,1.77,45,57,0.46,0.16,75,USA,Missouri,Missouri State,","
Rookies,贾瑞德,德克尔,SF,19,205.8,215,-3,61,3.72,3,0.376,8.33,0.492,0.93,0.254,1.87,15,6.11,61,3.79,78,46,1.23,0.21,70,USA,Kentucky,Kentucky,","
Rookies,哈米杜,罗伊斯,SG,19,195.6,200,-3,49,2.65,4.08,0.636,9.66,0.471,2,0.221,1.17,22.5,3.35,81,2.05,42,50,1.1,0.24,73,USA,Kentucky,Kentucky,","
Rookies,以赛亚,丹特,PF,19,213.1,245,-3,47,1.16,3.75,0.61,9.17,0.459,1.93,0.286,1.25,46.5,6,32,1.65,66,52,0.61,0.93,53,USA,Oregon,Eugene,","
Rookies,托马斯,博尔特,PG,22,190.5,190,-3,62,1.98,3.34,0.83,8.5,0.459,3.06,0.396,0.95,10,2.76,81,3.67,51,44,1.07,0.27,73,USA,Michigan,Western Michigan,","
Rookies,贾伦,奎因,PF,19,208.3,240,-3,56,2.2,2.33,0.716,6.5,0.464,3.46,0.369,1.22,50.5,3.83,47,1.04,96,40,0.97,0.91,73,USA,Michigan,Michigan State,","
Rookies,约什,库克,SG,20,193.1,215,-3,54,2.08,3.33,0.749,9.78,0.452,1.33,0.354,1.61,7.5,2.75,74,1.6,51,42,1.05,0.6,62,USA,Georigia,Georgia Tech,","
Rookies,肯尼奇,威廉姆斯,SF,22,200.7,210,-3,62,1.23,2.08,0.59,5.17,0.486,2.27,0.343,1.95,1,5.76,51,2.66,91,49,1.17,0.51,80,USA,Texas,TCU,","
Rookies,杰伦,博扬,PG,22,188.5,190,-3,55,3.42,5.18,0.818,6.16,0.445,4.8,0.353,0.68,5,2.38,80,5.8,51,52,1.6,0.15,92,USA,New York,Saint Bonaventure,","
Rookies,比利,康帕斯,PF,19,208.3,240,-3,63,1.81,2.83,0.672,7.32,0.458,1.18,0.288,1.67,4.5,4.25,61,1.42,54,43,0.7,1.1,70,USA,Kansas,Kansas,","
Rookies,拉马尔,瑞文,PG,20,183,184,-3,60,1.73,1.33,0.746,4.33,0.416,3.46,0.335,0.67,45,1.79,76,3.97,42,48,0.91,0.24,80,USA,Mississippi,Mississippi State,","
Rookies,阿隆佐,特里,SG,20,197.8,205,-3,56,1.68,2.82,0.81,7.99,0.46,3.2,0.367,1.07,17,3.1,82,2.74,85,41,0.41,0.1,82,USA,Arizona,Arizona,","
Rookies,阿伦,马奎斯,SG,20,190.5,195,-3,80,1.81,1.87,0.895,4.82,0.427,1.39,0.267,1.2,1,2.86,56,3.47,83,52,1.61,0.85,64,USA,California,USC,","
Rookies,雅各布,巴内斯,SF,21,198.2,210,-3,68,1.25,1.83,0.76,5,0.452,3.34,0.376,0.95,1,2.64,62,2.75,76,44,0.96,0.64,65,USA,Ohio,Cincinnati,","
Rookies,杰弗里,克苏恩,SG,22,198.2,215,-3,51,1.56,2.5,0.8,8.16,0.486,2.67,0.385,1.15,1,3.6,71,1.28,64,47,0.85,0.19,72,USA,Oklahoma,Oklahoma State,","
Rookies,阿隆,刘易斯,PG,21,185.5,185,-3,59,2.4,2.08,0.79,5.33,0.472,2.47,0.386,0.65,1,2.4,83,4.31,71,42,0.91,0.19,75,USA,California,UCLA,","
Rookies,沙克,米姆,SG,21,198.2,205,-3,48,1.62,1.56,0.747,4.71,0.439,3.66,0.4,0.36,1,2.76,71,4.08,83,64,1.12,0.23,91,USA,Texas,SMU,","
Rookies,德文,乔治,PG,22,188.5,195,-3,60,1.68,1.33,0.76,4.16,0.425,4.47,0.405,0.65,1,2.16,73,3.94,74,36,1,0.24,90,USA,Kansas,Kansas,","
Rookies,伊利亚,罗宾逊,SG,22,195.6,190,-3,80,1.03,0.99,0.7,5.16,0.426,3.74,0.343,1.07,3,2.86,72,1.27,92,57,0.76,0.79,82,USA,California,USC,","
Rookies,艾萨克,梅图,SF,18,205.8,200,-3,51,2.17,1.47,0.85,4.55,0.462,1.55,0.363,0.95,1.5,3.81,66,3.03,96,54,1.13,0.2,72,Germany,,Neuwied,","
Rookies,里乔恩,戴蒙德,SF,20,203.2,225,-3,63,1.17,2.83,0.556,5.83,0.471,1.93,0.273,1.12,26.5,3.95,70,0.94,46,52,0.83,0.56,76,USA,Washington,Gonzaga,","
Rookies,梅洛,特里伯,PG,21,192.8,185,-3,52,3,2,0.82,6.66,0.438,3.8,0.295,0.65,1,2.76,71,3.67,76,48,1.07,0.21,81,USA,Maryland,Maryland,","
Rookies,延特,米其林,PF,22,203.2,240,-3,70,2.43,4.25,0.71,9.84,0.489,1.13,0.408,1.57,1,3.87,42,1.54,54,51,0.56,0.89,71,USA,Georgia,Georgia,","
Rookies,基米兹,杜兰特,PF,21,208.3,225,-3,45,2.03,2.5,0.726,9.33,0.492,0.2,0.235,0.97,20,4.79,31,1.13,70,47,0.62,1.07,65,USA,California,USC,","
Rookies,布莱登,麦考,C,19,213.4,255,-3,38,1.86,3.58,0.666,9.66,0.485,0.33,0.283,1.27,16.5,5.27,41,1.13,75,32,0.19,0.67,66,USA,Nevada,UNLV,","
Rookies,邓恩,撒切尔,SF,21,200.7,200,-3,46,1.4,2,0.77,4.84,0.432,2.93,0.315,1.25,12,6,47,2.11,83,33,0.34,0.53,81,USA,Kentucky,Louisville,","
Rookies,亚,汤森,SF,22,203.2,190,-3,61,1.71,1.75,0.716,5.83,0.471,1.93,0.35,0.72,1,2.87,46,1.59,50,45,0.75,0.32,60,Montenegro,,Niksic,","
Rookies,文斯,沃西,SF,22,203.2,225,-3,61,1.73,1.66,0.816,5.5,0.471,2.13,0.388,0.77,1,3.95,56,3.24,50,46,0.49,0.4,69,USA,Indiana,Purdue,","
Rookies,卡梅隆,奥奇,SG,20,197.8,205,-3,47,1.68,4.82,0.81,4.66,0.46,4.27,0.367,1.07,31.5,4.3,75,2.74,75,52,0.41,0.1,78,USA,Arizona,Arizona,","
Rookies,德里克,贝恩斯,PF,21,205.5,235,-3,71,2.37,2.74,0.692,5.38,0.465,3.84,0.355,1.61,19.5,4.77,46,1.73,92,54,0.6,1.75,66,USA,Nevada,Nevada,","
Rookies,奥斯丁,哈特,SF,21,205.5,201,-3,43,1.09,1.97,0.836,4.91,0.422,4.47,0.342,0.78,12,3.2,65,0.82,83,42,0.86,1.06,67,USA,Indiana,Notre Dame,","
Rookies,鲁迪恩,保罗,C,20,210.9,255,-3,51,1.67,2.33,0.486,7.33,0.505,0.07,0.15,1.72,28.5,4.67,31,0.39,65,55,0.27,1.12,62,USA,Alabama,Auburn,","
Rookies,格雷森,布朗,SF,19,203.2,220,-3,44,2.03,1.75,0.716,5.16,0.457,1.53,0.269,1.37,21,3.83,62,1.5,43,54,0.89,0.11,53,Latvia,,Cesis,","
Rookies,伊凯,马拉,SG,22,195.6,210,-3,58,2.24,3.08,0.816,4,0.423,4.46,0.364,0.87,16,2.63,70,3.33,32,55,0.73,0.08,78,USA,North Carolina,Duke,","
Rookies,奥布里,金斯,SG,22,195.6,205,-3,61,2,2.33,0.79,6.84,0.432,3.33,0.319,0.8,1,2.52,70,2.94,75,58,1.06,0.16,77,USA,Ohio,Xavier,","
Rookies,奥米尔,尤尔,SF,21,198.2,205,-3,58,1.04,0.83,0.796,4.5,0.505,2.86,0.412,0.97,13.5,2.63,69,1.04,75,47,0.7,0.19,75,USA,Florida,Central Florida,","
Rookies,博里萨,曼奇,C,20,213.4,250,-3,50,1.78,2.83,0.706,5.33,0.457,0.13,0.273,1.07,18,3.47,44,1.4,50,45,0.3,0.69,60,USA,North Carolina,NC State,","
Rookies,约纳森,威廉,PF,19,210.9,205,-3,61,0.99,0.99,0.655,4.56,0.428,2.26,0.317,1.24,1,3.51,41,1.69,47,40,0.33,0.93,64,Serbia,,Ljubovija,","
Rookies,阿尔法,卡巴罗,PF,22,203.2,225,-3,79,1.4,1.59,0.567,6.23,0.533,0.68,0.339,0.93,1,3.94,47,0.87,97,46,0.73,0.76,62,USA,Washington,Gonzaga,","
Rookies,迈克尔,弗朗西克,PF,21,210.5,235,-3,58,1.31,2.09,0.68,6.33,0.534,0.8,0.252,1.3,5,4.2,34,1.28,64,49,0.64,0.83,67,France,,Blois,","
Rookies,乔纳,阿特金斯,C,21,220.7,220,-3,70,1.41,2.25,0.63,5.33,0.582,0.2,0.167,1.15,2,5.16,28,1.93,71,43,0.24,1.39,56,Slovak Republic,,Slovak Republic,","
Rookies,罗尔,阿郎佐,PF,21,208,195,-3,49,2,2.33,0.6,4.5,0.493,2.94,0.395,1.8,4,5.28,71,2.02,91,52,0.96,0.35,76,Australia,Victoria,Melbourne,","
Rookies,莫里兹,瓦特,SG,20,193.1,225,-3,58,1.82,1.58,0.73,5.17,0.439,2.26,0.343,0.95,10.5,3,74,2.11,88,47,0.8,0.48,67,USA,Arizona,Arizona,","
Rookies,阿诺达斯,库博卡,PF,21,210.9,235,-3,46,1.44,1.69,0.717,5.39,0.514,2.16,0.358,1.1,9,3.15,35,0.58,74,38,0.81,0.38,56,USA,Michigan,Michigan,","
Rookies,拉格雷德,维克,SF,19,205.8,205,-3,45,1.63,1.97,0.736,4.24,0.443,3.14,0.342,1.13,1,2.84,58,1.55,51,39,0.7,0.5,54,Lithuania,,Marijampoles,","
Rookies,肯德尔,斯蒂芬森,SG,21,195.6,180,-3,51,1.05,0.78,0.834,5.27,0.437,1.76,0.341,0.78,6,2.71,78,0.88,62,44,0.54,0.37,84,USA,Kansas,Kansas,","
Rookies,拉,扎格博格,SF,22,200.7,235,-3,47,1.03,0.66,0.74,2,0.411,6,0.324,0.4,5,1.92,73,1.65,88,42,0.56,0.21,61,USA,Nevada,Nevada,","
Rookies,伊安,泰勒,SF,21,204.1,205,-3,49.7,2.84,2.83,0.856,5.83,0.471,1.93,0.283,0.77,3,4.19,54,2.78,50,43.2,1.42,0.4,63,Serbia,,Belgrade,","
Rookies,朱勒,杰克里,PG,22,190.2,168,-3,31.7,1.8,4.08,0.807,8.17,0.439,1.2,0.282,0.28,5,1.91,60,4.18,44,46.6,0.86,0.12,75,USA,Texas,Texas,","
Rookies,维斯拉,卢卡,SF,21,204.1,201,-3,40,1.07,1.17,0.66,7.67,0.468,2,0.279,0.62,2,2.67,47,2.73,54,36.8,0.59,0.33,64,USA,North Carolina,North Carolina,","
Rookies,托马斯,罗斯,SG,22,203.2,205,-3,73,1.14,0.92,0.7,3.67,0.452,3.33,0.367,0.7,3,2.04,54,1.38,62,38,0.77,0.24,63,USA,Kansas,Kansas,","
Rookies,尼克,理查德,C,22,216,255,-3,51,0.42,1.66,0.836,6.16,0.485,0.13,0.288,1.57,1,4.79,30,1.13,100,58,0.33,0.69,62,USA,California,UCLA,","
Rookies,纳吉尔,海明威,C,19,210.9,231,-3,65,1.6,2.5,0.626,7.66,0.505,0.07,0.283,1.52,28.5,5.51,34,0.58,62,59,0.59,1.52,61,USA,Kentucky,Kentucky,","
Rookies,弗拉特科,卡特噶德,PF,21,204.2,235,-3,41,2.34,3.58,0.74,7.67,0.396,2.53,0.272,0.48,4,3.88,52,2.79,47,8,0.93,0.29,60,USA,Utah,Weber St,","
Rookies,纳兹尔,孟德尔,C,20,205.5,210,-3,38,1.27,2.08,0.86,4.67,0.466,2.33,0.367,0.7,2,2.28,34,1.47,75,24,1.01,0.4,58,Slovenia,,Koper,","
,,,,,,,,,,,,,,,,,,,,,,,,,,,,,
// Coaches ,,,,,,,,,,,,,,,,,,,,,,,,,,,,,
,Team ID,First,Last,Age,Position,Authority,Expectation,Personality,ShotSelection,BallMovement,Rebounding,Defence,Structure,DevShot,DevBallMovement,DevRebounding,DevDefence,DevFitness,FindTalent,FindPotential,Persuasion,Dedication,Desire,Potential,,,,,
Coaches,0,劳埃德,皮尔斯,43,HC,58,49,82,66,64,73,83,61,52,50.4,57.6,65.6,83,54,67,80,51,45,71,,,,,
Coaches,1,布拉德,史蒂文斯,43,HC,88,86,89,81,81,73,86,83.5,64,64,57.6,68,77,43,30,78,27,97,88,,,,,
Coaches,2,肯尼,阿特金斯,52,HC,68,48,79,74,76,76,74,74,58.4,60,60,58.4,58.4,45,67,63,26,47,81,,,,,
Coaches,3,詹姆斯,博雷戈,42,HC,54,59,88,78,68,73,70,64,61.6,53.6,57.6,55.2,50.4,45,44,73,40,32,71,,,,,
Coaches,4,吉姆,博伊兰,54,HC,78,43,70,61,66,64,67,64,48,52,50.4,48,50.4,45,37,60,45,22,69,,,,,
Coaches,5,拉里,德鲁,61,HC,76,71,79,65,64,68,61,63,51.2,50.4,53.6,48,49.6,48,47,48,43,12,61,,,,,
Coaches,6,里克,卡莱尔,60,HC,92,82,88,71,73,82,76,73.5,56,57.6,64.8,60,58,30,35,30,35,86,76,,,,,
Coaches,7,迈克尔,马龙,48,HC,78,79,75,87,88,90,82,84.5,68.8,69.6,72,64.8,66.8,48,45,80,40,32,86,,,,,
Coaches,8,德维恩,凯西,62,HC,73,86,70,69,69,83,80,74.5,54.4,54.4,65.6,63.2,58.8,46,40,45,45,78,72,,,,,
Coaches,9,史蒂夫,科尔,54,HC,92,98,98,90,90,82,75,82.5,72,72,65.6,60,66,83,39,82,62,96,89,,,,,
Coaches,10,迈克,德安东尼,68,HC,84,89,89,89,62,65,66,77.5,71.2,49.6,52,52.8,62,41,45,76,48,89,86,,,,,
Coaches,11,内特,麦克米兰,55,HC,72,79,78,76,83,79,89,82.5,60.8,66.4,63.2,71.2,66,41,42,74,42,77,81,,,,,
Coaches,12,道格,里弗斯,58,HC,67,77,87,80,67,70,72,76,64,53.6,56,57.6,60.8,44,41,62,40,86,64,,,,,
Coaches,13,卢克,沃顿,39,HC,51,57,88,70,71,78,78,74,56,56.8,62.4,62.4,59.2,32,52,81,58,31,81,,,,,
Coaches,14,JB,比克斯塔夫,40,HC,48,67,65,62,85,63,85,73.5,49.6,68,50.4,68,58.8,41,45,46,48,35,68,,,,,
Coaches,15,埃里克,斯波尔斯特拉,49,HC,81,54,79,68,79,86,82,75,54.4,63.2,68.8,65.6,60,34,49,65,49,78,70,,,,,
Coaches,16,迈克,布登霍尔泽,50,HC,84,82,88,88,78,87,90,89,70.4,62.4,69.6,72,71.2,45,47,63,76,89,84,,,,,
Coaches,17,莱恩,桑德斯,33,HC,49,32,78,80,74,76,71,75.5,64,59.2,60.8,56.8,60.4,45,37,70,35,31,68,,,,,
Coaches,18,阿尔文,金特里,65,HC,79,83,85,83,80,85,69,75,66.4,64,68,55.2,60,48,43,47,63,77,72,,,,,
Coaches,19,大卫,菲兹戴尔,45,HC,76,68,65,64,60,67,63,63.5,51.2,48,53.6,50.4,50.8,41,45,46,48,77,68,,,,,
Coaches,20,比利,多诺万,54,HC,78,74,82,77,65,80,87,82,61.6,52,64,69.6,65.6,32,34,76,40,81,81,,,,,
Coaches,21,史蒂夫,克劳福德,58,HC,84,78,75,68,85,70,84,76,54.4,68,56,67.2,60.8,36,51,86,40,80,71,,,,,
Coaches,22,布雷特,布朗,58,HC,79,81,82,82,89,84,80,81,65.6,71.2,67.2,64,64.8,36,36,85,65,89,79,,,,,
Coaches,23,伊戈尔,科科什科夫,48,HC,42,22,65,63,77,60,61,62.5,50.4,61.6,48,48.8,49.6,42,49,71,71,17,66,,,,,
Coaches,24,特里,斯托茨,62,HC,78,68,80,86,64,89,76,81,68.8,51.2,71.2,60.8,64.8,32,36,43,61,78,79,,,,,
Coaches,25,戴夫,乔尔格,47,HC,67,36,70,72,75,66,73,72.5,57.6,60,52.8,58.4,57.6,34,46,46,44,29,73,,,,,
Coaches,26,格雷格,波波维奇,70,HC,92,84,61,84,70,74,68,76,67.2,56,59.2,54.4,60.8,33,30,89,34,98,75,,,,,
Coaches,27,尼克,纳斯,52,HC,66,72,75,85,73,76,84,84.5,68,58.4,60.8,67.2,67.6,32,22,41,48,72,76,,,,,
Coaches,28,奎因,斯奈德,53,HC,92,78,82,73,87,88,88,80.5,58.4,69.6,70.4,70.4,64.4,37,40,44,43,82,78,,,,,
Coaches,29,斯科特,布鲁克斯,54,HC,74,82,88,75,86,62,65,70,60,68.8,49.6,52,56,48,39,44,47,73,72,,,,,
Coaches,0,梅尔文,亨特,49,AC,55,41,69,56,60,65,64,55,71,81,76,62,64,43,49,48,49,12,65,,,,,
Coaches,1,杰,拉尼亚加,52,AC,60,68,70,57,55,68,68,60,80,81,71,79,84,46,42,47,48,14,67,,,,,
Coaches,2,保罗,韦斯特法尔,68,AC,85,60,70,67,68,63,69,60,77,82,69,83,67,59,57,48,43,64,60,,,,,
Coaches,3,马克,普莱斯,55,AC,70,61,85,53,57,66,60,65,87,67,56,69,77,50,50,59,44,36,67,,,,,
Coaches,4,阿德里安,格里芬,44,AC,55,70,75,52,54,53,57,63,82,67,75,58,67,41,45,44,43,34,68,,,,,
Coaches,5,詹姆斯,波西,44,AC,65,40,85,58,53,50,74,55,61,61,72,87,69,43,49,48,49,38,67,,,,,
Coaches,6,达雷尔,阿姆斯特朗,51,AC,55,57,81,52,54,48,54,55,81,71,63,61,71,43,53,47,48,33,69,,,,,
Coaches,7,帕特里克,穆托姆博,48,AC,55,57,65,59,48,68,64,55,57,68,76,72,78,49,43,59,58,33,68,,,,,
Coaches,8,蒂姆,霍纳塞克,42,AC,70,52,80,79,82,62,64,53,81,90,57,67,81,53,67,67,79,48,68,,,,,
Coaches,9,莱恩,兰比斯,42,AC,65,56,65,57,59,51,85,62,48,54,55,82,73,66,54,76,73,38,68,,,,,
Coaches,10,卡尔,多诺万,47,AC,50,56,55,53,62,55,56,46,52,62,48,62,61,53,66,62,58,66,69,,,,,
Coaches,11,波派,奇克斯,47,AC,55,64,70,51,44,51,46,89,67,60,53,51,80,74,80,56,72,70,60,,,,,
Coaches,12,山姆,沃格尔,44,AC,70,68,75,70,84,53,57,59,70,74,51,62,54,50,54,65,65,58,68,,,,,
Coaches,13,詹姆斯,阿德尔曼,67,AC,80,70,55,72,78,53,53,50,71,72,52,54,68,61,58,53,63,35,55,,,,,
Coaches,14,乔纳森,布朗,67,AC,80,70,55,72,78,53,53,50,71,72,52,54,68,61,58,53,63,35,55,,,,,
Coaches,15,朱旺,奥布莱恩,42,AC,60,61,70,53,54,64,54,58,62,67,65,68,73,63,67,75,84,28,69,,,,,
Coaches,16,格雷,沃特森,43,AC,60,64,80,54,78,54,68,54,58,78,52,66,70,72,70,69,79,25,68,,,,,
Coaches,17,大卫,特里亚诺,52,AC,70,69,70,58,68,53,62,67,73,80,57,64,67,58,67,65,78,69,68,,,,,
Coaches,18,罗伯特,斯托茨,47,AC,60,70,75,54,58,49,53,59,77,83,48,69,71,65,62,69,78,67,68,,,,,
Coaches,19,吉米,莫兰,60,AC,60,55,65,54,49,64,58,54,64,52,72,71,68,62,68,62,79,73,64,,,,,
Coaches,20,毛里斯,乔格尔,47,AC,60,70,75,54,58,49,53,59,77,83,48,69,71,65,62,69,78,67,68,,,,,
Coaches,21,马里奥,盖茨,42,AC,60,72,65,53,57,64,56,60,59,63,73,72,69,74,69,62,67,39,68,,,,,
Coaches,22,迈克,波本,67,AC,55,70,60,48,54,41,42,56,74,77,69,78,70,52,60,71,80,8,63,,,,,
Coaches,23,诺尔,汉蒙,47,AC,65,50,60,57,52,61,71,64,63,59,62,67,66,53,59,74,80,50,70,,,,,
Coaches,24,约翰,凯西,61,AC,65,65,65,65,65,65,65,65,65,65,65,65,65,65,65,65,65,65,65,,,,,
Coaches,25,科里斯,尼尔斯,44,AC,60,73,70,65,59,67,59,59,80,59,73,68,59,59,69,63,73,83,70,,,,,
Coaches,26,贝基,斯奈德,62,AC,65,65,60,59,56,64,58,69,53,56,58,64,58,49,52,69,68,41,60,,,,,
Coaches,27,纳吉尔,布莱恩特,70,AC,55,64,70,51,44,51,46,89,67,60,53,51,80,74,80,56,72,70,60,,,,,
Coaches,28,布瑞恩,布鲁克斯,38,AC,65,38,65,42,41,46,43,48,53,50,49,50,52,75,72,66,67,37,75,,,,,
Coaches,29,霍华德,罗伊,44,AC,70,68,75,70,84,53,57,59,70,74,51,62,54,50,54,65,65,58,70,,,,,
Coaches,-1,史蒂夫,纳什,45,NA,77,27,100,88,86,55,36,76,88,83,49,40,68,43,29,29,43,25,86,,,,,
Coaches,-1,科比,布莱恩特,41,NA,98,22,86,90,71,64,81,83,89,52,43,86,79,41,40,27,41,34,85,,,,,
Coaches,-1,蒂姆,邓肯,43,NA,98,33,98,81,52,87,86,73,68,51,85,88,70,47,27,48,45,4,85,,,,,
Coaches,-1,布兰登,罗伊,35,NA,82,40,88,84,80,53,78,60,81,74,64,76,75,44,49,47,44,4,81,,,,,
Coaches,-1,JB,奥尼尔,53,NA,72,64,80,72,68,77,70,61,75,54,80,80,50,39,40,80,85,15,60,,,,,
Coaches,-1,丹,奥拉朱旺,67,NA,70,71,75,70,70,75,70,75,65,67,68,69,73,57,57,86,83,10,60,,,,,
Coaches,-1,布朗,罗格斯,52,NA,75,82,75,73,69,64,68,73,67,68,61,70,68,64,64,71,75,81,70,,,,,
Coaches,-1,乔治,查瓦利亚,69,NA,70,56,85,82,81,64,61,69,51,70,63,56,68,50,42,79,85,44,60,,,,,
Coaches,-1,格雷莫,肯尼森,41,NA,70,72,90,59,62,63,62,65,67,70,69,60,64,50,51,71,78,32,65,,,,,
Coaches,-1,沙克,克里蒙斯,42,NA,80,68,95,58,52,66,69,57,71,52,74,75,53,51,52,86,88,50,60,,,,,
Coaches,-1,杰夫,彼得斯,54,NA,70,70,70,65,65,68,73,58,61,61,60,64,62,63,62,67,67,37,65,,,,,
Coaches,-1,莱斯,库尔特,67,NA,28,55,71,64,81,16,60,71,61,42,28,50,84,69,13,90,64,12,52,,,,,
Coaches,-1,萨尔,库特斯,62,NA,41,63,86,84,23,29,62,61,62,43,70,10,66,59,26,15,60,17,40,,,,,
Coaches,-1,迈克尔,布拉迪,55,NA,43,47,43,50,61,18,77,44,14,19,73,75,90,64,78,36,70,56,68,,,,,
Coaches,-1,萨米尔,罗森菲尔德,66,NA,29,64,43,62,28,48,44,68,77,34,78,40,29,51,18,66,83,37,66,,,,,
Coaches,-1,卢锡安,罗坎特思,62,NA,41,50,40,59,75,32,18,43,43,50,53,12,67,30,17,90,40,76,12,,,,,
Coaches,-1,达伦,纳瓦瑞德,55,NA,21,47,60,55,20,73,64,20,46,67,42,85,10,38,22,60,39,79,61,,,,,
Coaches,-1,基南,弗莱希曼,63,NA,60,41,34,63,61,21,34,47,12,77,21,56,56,56,33,78,34,36,43,,,,,
Coaches,-1,贾莱德,库特斯,59,NA,61,55,64,78,16,72,35,61,26,70,64,34,54,25,24,89,10,19,66,,,,,
Coaches,-1,卢锡安,罗森菲尔德,33,NA,70,38,72,44,55,45,51,52,51,30,34,32,51,70,32,53,25,2,17,,,,,
Coaches,-1,菲利克斯,罗坎特思,30,NA,49,65,40,47,34,72,31,80,40,71,34,72,55,67,86,42,48,14,59,,,,,
Coaches,-1,泰,纳瓦瑞德,33,NA,34,42,80,76,39,17,24,65,18,16,35,34,27,34,53,70,32,75,68,,,,,
Coaches,-1,尼尔,弗莱希曼,61,NA,88,46,18,22,78,44,10,65,11,32,25,76,34,50,90,29,27,18,45,,,,,
Coaches,-1,德兰德,麦克林,43,NA,89,37,45,48,18,60,17,25,57,12,50,63,39,30,42,37,66,45,54,,,,,
Coaches,-1,乔纳森,埃德米斯顿,45,NA,23,55,24,70,76,63,13,32,67,30,18,42,58,58,81,12,85,51,39,,,,,
Coaches,-1,欧文,阿尔瓦雷斯,30,NA,74,54,61,39,22,26,64,86,74,83,46,70,72,17,53,41,74,14,37,,,,,
Coaches,-1,安德鲁,马凯特,61,NA,65,52,15,25,29,74,80,75,45,12,39,24,14,34,33,70,56,20,30,,,,,
Coaches,-1,托比厄斯,怀昂,44,NA,49,64,40,57,70,56,70,75,52,19,24,42,28,89,29,47,43,98,62,,,,,
Coaches,-1,琼斯,克恩,53,NA,63,53,52,50,83,66,57,50,38,18,13,41,41,20,56,60,54,5,62,,,,,
Coaches,-1,安德鲁,特里恩,43,NA,72,40,66,74,25,30,25,81,58,15,15,16,42,79,51,19,74,24,63,,,,,
Coaches,-1,爱德森,索斯沃斯,67,NA,90,58,17,80,15,73,51,29,33,60,44,50,59,55,60,78,51,78,72,,,,,
Coaches,-1,克里斯,迈克尔,41,NA,16,46,66,24,44,24,48,49,10,38,40,25,81,83,75,51,67,2,64,,,,,
Coaches,-1,林恩,特伯维尔,66,NA,64,54,75,22,25,70,39,15,68,73,76,55,83,52,48,74,47,22,51,,,,,
Coaches,-1,乔丹,兰吉,37,NA,47,46,45,56,63,24,61,15,44,67,36,73,62,61,69,13,49,88,59,,,,,
Coaches,-1,迈克尔,吉利奥,35,NA,81,64,38,77,66,65,63,42,54,68,33,40,76,68,67,69,44,36,58,,,,,
Coaches,-1,厄伯,盖斯,31,NA,54,48,88,25,36,67,64,32,32,61,68,23,71,18,77,84,12,45,68,,,,,
Coaches,-1,埃斯特班,伦切尔,42,NA,60,58,26,76,55,63,45,48,70,74,11,51,12,59,35,42,35,56,34,,,,,
Coaches,-1,梅哈米,施莱尔,53,NA,16,45,27,41,21,47,48,46,28,62,32,87,35,48,88,40,25,99,30,,,,,
Coaches,-1,比利,布罗考,51,NA,75,59,10,19,13,77,20,64,38,11,65,63,54,48,49,82,27,67,69,,,,,
Coaches,-1,格雷格,奥登,32,NA,90,19,100,25,27,20,22,19,98,98,97,96,95,40,21,71,75,5,98,,,,,
Coaches,-1,杰里,韦斯特,28,NA,90,17,100,10,17,11,12,14,15,10,16,19,26,100,100,100,100,31,60,,,,,
Coaches,-1,艾弗雷特,格雷索,48,NA,15,57,89,70,17,61,42,54,15,80,16,59,26,40,35,45,19,31,67,,,,,
Coaches,-1,咸鱼,莱利,18,NA,90,19,100,96,94,91,98,96,53,49,51,53,43,42,68,48,44,7,95,,,,,